{"type":"FeatureCollection","features":[{"type":"Feature","properties":{"reg_code":["03000"],"prov_code":["50000"],"prov_name_fr":["Province du Hainaut"],"reg_name_fr":["Région wallonne"],"CODE_INS_NOM_PROVINCE":"5 - HAINAUT"},"geometry":{"type":"MultiPolygon","coordinates":[[[[4.577469831342724,50.54235535399488],[4.512713096351297,50.525404590256635],[4.502625223986762,50.52845694608913],[4.503509875342198,50.539638845411986],[4.490485228257405,50.53795276055104],[4.484073055710447,50.53361565139471],[4.474315659801661,50.536134436628814],[4.467362572016659,50.527760977360366],[4.463503322146169,50.53135597428195],[4.467542611727451,50.53793093191638],[4.465962833330647,50.54639221949483],[4.477322868211008,50.55085905433452],[4.470285547121544,50.55878309992366],[4.45048293212874,50.55407625173836],[4.443664116168688,50.56011693354341],[4.421854934335252,50.55840133113933],[4.417121224427125,50.56456706580285],[4.411668265523273,50.564634051603015],[4.382292687404337,50.56404013872822],[4.376906852816763,50.55930231811718],[4.358970267890805,50.56294405525804],[4.357248369538874,50.55619835104401],[4.341761258863573,50.552597951240266],[4.344638069374926,50.54871743847695],[4.331434597061904,50.543412459229934],[4.325149440427324,50.5493982081722],[4.334900744806134,50.555129224765636],[4.33081415691345,50.56030107723374],[4.336463534609036,50.566820648963834],[4.334379219386155,50.568924372958776],[4.302341272217109,50.56762987116101],[4.298942011721557,50.577021441636866],[4.274816090987597,50.592836421591166],[4.275036545681325,50.59586237099721],[4.260705943383848,50.5928724850894],[4.246416549187213,50.597033598712315],[4.251673387282039,50.60122338681405],[4.245571637237235,50.612259253816084],[4.253652294231016,50.61592143500258],[4.24462378317663,50.62078277910914],[4.23110958130477,50.62454256254268],[4.199251317992649,50.62455988907617],[4.200145149371378,50.63198704019289],[4.197035935572416,50.63492220332843],[4.204436129572724,50.646941097885254],[4.182357334921187,50.66205554089157],[4.177349986304113,50.66338516195599],[4.141015738040016,50.63176004832339],[4.132701097631912,50.62932076708754],[4.116426543114928,50.63487931032141],[4.106509184301314,50.63225156178326],[4.091562407255143,50.65349337273829],[4.093814826292739,50.65568524037184],[4.092772464432318,50.65352295772082],[4.097565700346025,50.65236562296632],[4.100304566272236,50.662939719631325],[4.091299633866341,50.669420119223076],[4.097234659256495,50.67604402108418],[4.094900502810057,50.67976483191353],[4.099615340465347,50.69244705589352],[4.092201834593024,50.70108689526926],[4.113314395262222,50.70514426592325],[4.111010883600168,50.70964608164288],[4.099011915921569,50.70550380073694],[4.090730315717154,50.70710989860679],[4.086377283232656,50.71350705614124],[4.071997993836797,50.71179956746528],[4.058740801501641,50.69449200196937],[4.051693329614671,50.70184594412193],[4.031841112647123,50.69392228447104],[4.017116158094056,50.6939174383262],[4.009951169437682,50.69942311905067],[3.987720621556783,50.68749505113677],[3.97122738884905,50.690541717298174],[3.931330535744575,50.68946147816744],[3.927821110210322,50.69543546601162],[3.91209400325467,50.69118690396525],[3.910327049102491,50.69452609427402],[3.913476296368354,50.69875012784478],[3.904063496268593,50.705084379752776],[3.901735468385023,50.71079362033108],[3.889946575547635,50.71034124850486],[3.896930391644968,50.7292121623238],[3.892565445784112,50.73507229896647],[3.899091776148074,50.737148292045475],[3.886026264123524,50.74948771729234],[3.879806344925581,50.75145010229358],[3.866319931918728,50.74792128777753],[3.858427909148474,50.75127924114804],[3.857203184196322,50.747461326197445],[3.851010010847447,50.74809248678648],[3.83831311887152,50.74143551516933],[3.818838915603239,50.74468298686307],[3.81547084624391,50.75071751587107],[3.775676619247478,50.74789240600225],[3.772807860631702,50.75440749870387],[3.760149216353028,50.76253724763952],[3.753226853719239,50.771626041339225],[3.758523279309924,50.78040754443104],[3.748415900046671,50.774376088552664],[3.741869056090335,50.7748159457261],[3.738193220496877,50.770308565040445],[3.715900434071555,50.767957047781245],[3.711594476883815,50.7705541164641],[3.714644320621628,50.77309460115851],[3.709039458581356,50.77469921147572],[3.713311352935901,50.78035466697294],[3.710186453304065,50.78186139825782],[3.696900517204732,50.77340043566384],[3.678225294788612,50.77229006128029],[3.67503153107167,50.76868388605158],[3.677374536391064,50.767018692667676],[3.669496236171052,50.76396104940643],[3.67255070262461,50.75842187089997],[3.659865316260829,50.75436504190651],[3.658959035496446,50.74686906386936],[3.642641701882128,50.73823008396321],[3.640386592117144,50.72230446872621],[3.631029042577858,50.721103443197876],[3.620389556991098,50.723994777971015],[3.610271357409028,50.73226605955566],[3.56829347107234,50.72813310743842],[3.559330185797132,50.73409811549806],[3.54169381676249,50.73279246724694],[3.547787982872996,50.74719503823341],[3.538571550076107,50.7574017947389],[3.540682523281952,50.76286587896345],[3.537629508434386,50.76454672663376],[3.492195174511707,50.757735417319275],[3.466669282771097,50.76474641769876],[3.459304926170243,50.76214549803008],[3.454856602253953,50.77114035783985],[3.453615895155336,50.76543595279058],[3.457388000995845,50.76353952519697],[3.454636096542044,50.75882711841344],[3.43857098166882,50.75861560634392],[3.43691000709967,50.75432715645868],[3.431895938464053,50.756721760961064],[3.434984963208676,50.75012844698284],[3.42660895678641,50.74675368553522],[3.405546928747961,50.746346104176986],[3.399584131018696,50.73246232292152],[3.393257004390748,50.73188395970055],[3.395243075378964,50.72993264895214],[3.368892762832772,50.72576989630786],[3.360601530553011,50.70957479315104],[3.323943994134468,50.72239986345817],[3.329059875073641,50.730832524639986],[3.305583964654469,50.75468979140703],[3.293049961633025,50.74954172627234],[3.265023666838774,50.750607146092264],[3.248075023186806,50.757447381015545],[3.240598010772597,50.756438754270725],[3.227659534379842,50.76505427624892],[3.220665075720137,50.76589937124497],[3.191808093525551,50.75609711630705],[3.178252267937635,50.7561350117086],[3.187455761051921,50.74076154761403],[3.199989550685558,50.73459074096712],[3.191296049091078,50.72556845806122],[3.209781489897528,50.71746078915187],[3.205104613907896,50.7121050775696],[3.220155049366417,50.70985520802766],[3.22738783456949,50.7130172544868],[3.245240617166898,50.71304527974366],[3.250813014914517,50.70535984987931],[3.261052218297355,50.70134031457051],[3.258559719048547,50.69608467904171],[3.261514091614519,50.6914105927492],[3.252847117172232,50.68975619271777],[3.265279649925284,50.67708239691011],[3.24121743308284,50.66884442634543],[3.240069300071362,50.65862546685211],[3.248906258791118,50.649764668899614],[3.244120038517642,50.64068192141631],[3.259196808636584,50.62972687867252],[3.255280279932527,50.62274263855226],[3.269995603157772,50.611976808337076],[3.276218754338659,50.60042470992522],[3.274573855191184,50.59688582506082],[3.279567568153659,50.595916996334466],[3.275728895911611,50.58162972692582],[3.282043170231648,50.57516869631029],[3.278524876259136,50.572849581536154],[3.277780890739993,50.56429332676013],[3.285203177789024,50.56167078127937],[3.275950768715936,50.55853961665416],[3.282559493735075,50.5520585976256],[3.278254293871469,50.55169019863597],[3.278810293002938,50.5389666986411],[3.28455279560474,50.535188298701414],[3.288519616054734,50.52581490667493],[3.320599839212133,50.51873224666984],[3.329560279151103,50.50803038411804],[3.361929985025203,50.503905097477954],[3.377056308979334,50.49109356169516],[3.392025566127245,50.49851651950767],[3.396018908223388,50.496114333165885],[3.428923569884147,50.50471282130485],[3.438397109672223,50.5106854417945],[3.439327397545205,50.50730943348185],[3.44897226740169,50.50658845721292],[3.453803986047819,50.51920917893241],[3.474424117114263,50.53367261304852],[3.491281278065929,50.527648954005166],[3.503921594146376,50.5297141984488],[3.519811594094421,50.52368161207582],[3.516188641906162,50.512865461818215],[3.50378305873518,50.50693941263434],[3.496302783621701,50.49887230195776],[3.500729322984813,50.48670301861532],[3.522960471585453,50.495389018785936],[3.539302879270643,50.49468026754735],[3.569308030900879,50.50091009189283],[3.585632126445955,50.49053526216687],[3.607539416504455,50.497230048732746],[3.632516179329292,50.479945981392625],[3.630218379810169,50.47919699790012],[3.635129004432332,50.47120579262793],[3.64341011680443,50.46333960903175],[3.654381717066655,50.463111769062635],[3.662760889390016,50.45608808912871],[3.664161716802988,50.45229559662129],[3.659453388714513,50.445106320418],[3.669765617322765,50.43724042968003],[3.674072973221533,50.389533641181984],[3.657100745334838,50.36928326657727],[3.667229264952415,50.36092319618381],[3.66541009179184,50.347022598132],[3.67740499479665,50.34027879852874],[3.674721472177926,50.33289027898646],[3.693826157644675,50.32182966784341],[3.689005424132501,50.318598280203965],[3.709934139787115,50.30316535754019],[3.720140102105501,50.30502460975641],[3.708964641564101,50.31894180617856],[3.718032440032603,50.3175591352394],[3.721152441598031,50.31131664124223],[3.731870527706903,50.31152059848827],[3.727367983790142,50.31531636216045],[3.732439386594581,50.32156768646912],[3.729904231555611,50.330408509107215],[3.733930770937627,50.329960912042154],[3.736014906609098,50.335680540027305],[3.733107933333475,50.33824462983484],[3.738403784968678,50.34123324281057],[3.733978330260683,50.34304073668337],[3.747208594658218,50.35099209869665],[3.763187912581048,50.34802127910161],[3.767046634678776,50.353092200156155],[3.798941402034614,50.35092035818173],[3.807217211460406,50.355261139168995],[3.814002990950252,50.35318174239106],[3.815357408839927,50.349587000519556],[3.811627437312388,50.345229813456044],[3.814760729492212,50.34489589285549],[3.823536010886505,50.34717385004682],[3.824338418285417,50.3534492403386],[3.845712863072066,50.35315754599843],[3.856186519233917,50.3489224889366],[3.857172679623659,50.34223587004062],[3.862191490264366,50.34371344210792],[3.875691030104827,50.33761674075787],[3.887188628080649,50.340957404114796],[3.890491956681176,50.329821599500214],[3.88567915809979,50.32698497506475],[3.900922818582008,50.32698753261825],[3.968407323349393,50.35005767402359],[3.965570704743132,50.34148660042793],[3.973198879570566,50.34789704382439],[3.985519563131101,50.34206447408911],[3.993644707418663,50.348747948658506],[4.017852609125976,50.352381018025696],[4.01549679475928,50.35373179848505],[4.018281593434048,50.35726399830533],[4.024216694508383,50.35917989930713],[4.031282935767991,50.35417350253331],[4.036063427928342,50.343664094299186],[4.054005394826569,50.339326298876344],[4.055057877025229,50.332530628626735],[4.065437112355739,50.33031147734889],[4.078275552287897,50.32067377107712],[4.078913581553426,50.30966361806176],[4.097181065334124,50.31351172903406],[4.109707044982341,50.30184637451009],[4.117065250611886,50.30408865193671],[4.125675666651638,50.28838720381071],[4.125297980356122,50.280525471021676],[4.121859746657845,50.277638602623185],[4.124376505599337,50.273633850824005],[4.136310468777214,50.27460238430526],[4.133664953176876,50.26705118268225],[4.138796655076724,50.26328598207691],[4.135505131746728,50.257398710996526],[4.167668026822581,50.25949302507656],[4.168721078830512,50.266537349437016],[4.163423321797209,50.27186725786603],[4.149277553330849,50.27556883904794],[4.155348392501927,50.28020488318803],[4.154268425077365,50.28454877228494],[4.161070164860986,50.284939522707255],[4.162618373180299,50.288952149242455],[4.176361603502681,50.28444293335684],[4.174631036972319,50.27845739677936],[4.177424145006052,50.275038167108505],[4.208192794408801,50.27298915735011],[4.221245568750307,50.258612398511595],[4.220041861825501,50.25164086721465],[4.202857254818373,50.24032097222339],[4.193566648180622,50.24043436606393],[4.181549025771907,50.23227985099842],[4.17492134143699,50.21996460181429],[4.169946045827561,50.21838268163276],[4.172841271026808,50.217113374251774],[4.150435767219403,50.21359885293247],[4.152080986217619,50.20698945908319],[4.160464978969972,50.202324072155825],[4.156149958574343,50.18338677881801],[4.148102524617345,50.174261592577956],[4.155780919383171,50.17207639163918],[4.155294656573143,50.16297092108503],[4.137724874644999,50.15193374030586],[4.135572563821322,50.142579874011886],[4.127757663744678,50.13598408976578],[4.132138610370665,50.13205044681386],[4.154777554714346,50.12790029918502],[4.15720492967773,50.13529560732159],[4.198906786762205,50.134472485378225],[4.200844309926358,50.13294112125407],[4.19757514611451,50.12879791975504],[4.203848612439971,50.116051307509856],[4.196760851202482,50.10642213455571],[4.207446956143097,50.10521140655518],[4.201561643964723,50.09991338342074],[4.225234609978492,50.08557956687182],[4.23090727603236,50.07347577442231],[4.224174249260975,50.06365259294782],[4.198772744476543,50.05657342682592],[4.194279394314461,50.04941905001971],[4.173948827416998,50.04546634907109],[4.162280150796215,50.049346198330596],[4.136125782367742,50.02089756976251],[4.136261303894615,50.013351071224456],[4.144943712891012,50.008469315501564],[4.142362261637994,50.005683656092614],[4.146523180367646,50.00668976272455],[4.145384863037135,50.00390798874778],[4.154920172070368,49.99984650583874],[4.161862797464287,50.000553191704185],[4.163141649605535,49.99500285951951],[4.154268321323066,49.98467176376208],[4.141503859235701,49.97796590467968],[4.152417090832745,49.97455136007956],[4.172783389284577,49.977180040669346],[4.178189156612335,49.97197017930694],[4.196731975380097,49.967695036092636],[4.195006681408669,49.95614805303877],[4.197800851075231,49.95479165625936],[4.224766337295287,49.95928219945959],[4.235201946939174,49.95781236790396],[4.268065280708098,49.96528900841259],[4.289788160456462,49.96360658074773],[4.309519148069333,49.96952677792292],[4.317539166307083,49.96500468601939],[4.33573753875762,49.96336172834891],[4.351006913474738,49.952244695702184],[4.371992147090206,49.951326973368936],[4.381009050985098,49.95437788277801],[4.390502859756315,49.94781462893444],[4.416289015054307,49.947573975998274],[4.432708399142436,49.94177550514228],[4.44539488452855,49.95303348961799],[4.435114147533239,49.972533150101036],[4.423926972791458,49.98253741284047],[4.413524725821387,49.99859167541121],[4.415384999124715,50.01059514345432],[4.406504495032995,50.03688960590733],[4.409571255851462,50.045248893718046],[4.406343221581862,50.04961055487462],[4.401430437390596,50.0480094990634],[4.400939881574221,50.051007069410275],[4.393521800536161,50.0475861155035],[4.39009592523781,50.049876453623156],[4.395724849105699,50.05819014490061],[4.39011535694638,50.06715111310922],[4.394200981729035,50.081134677613235],[4.385614369004139,50.10900710439112],[4.400676192014475,50.12284536032755],[4.384331760027831,50.13599956022257],[4.388635116710137,50.14361515129205],[4.384911251373611,50.15041308787471],[4.376153037371133,50.152781530714265],[4.375947972603827,50.156894624904986],[4.365440306232131,50.15686819303234],[4.361582201926328,50.17095433308179],[4.392216289987816,50.18071384787606],[4.397500700654704,50.18598170540757],[4.389357583264164,50.200486780009655],[4.393915272153675,50.2048273900329],[4.391214528206892,50.21115699226413],[4.398964154717859,50.21397263630043],[4.394274897219364,50.221267374210676],[4.395712721860998,50.22560800113872],[4.39984637158284,50.225877340985],[4.400963875022287,50.23305490841339],[4.388944126029315,50.23428070188399],[4.387026251271256,50.239337131958834],[4.367025910988279,50.243377247463656],[4.34499915410303,50.22737196746444],[4.309185937687611,50.238018823168616],[4.30830682632201,50.24172508108062],[4.298700483264113,50.243549989340735],[4.292990689101355,50.25013643641627],[4.285751278370137,50.24971507376985],[4.289758669485155,50.25364493941388],[4.28675268129482,50.25583308691758],[4.296048373834903,50.26304152026553],[4.304210571301938,50.263653615004586],[4.309544962437484,50.270008522428725],[4.314746453300687,50.26732374122141],[4.31986284820519,50.26913176862137],[4.316162621522665,50.27185525896681],[4.327127701171942,50.27262908269084],[4.328237665095812,50.277567077121134],[4.338823256074769,50.27675848839128],[4.337478692250373,50.274868347273774],[4.34144027672262,50.2787418266609],[4.351113542035584,50.278355086378454],[4.358052063931766,50.274979847830444],[4.362099416601144,50.283201328909556],[4.368845106062112,50.285097910046886],[4.3693686894402,50.29186336816512],[4.386860731757904,50.29002705957648],[4.398924856295988,50.29704895013301],[4.40467050855516,50.30466584589757],[4.400905323824385,50.30769525183207],[4.402063740122312,50.31115143931238],[4.419520866629493,50.305547107426825],[4.431497563413891,50.31031044370494],[4.456956699051439,50.30482123582808],[4.466088371619071,50.31023948410396],[4.463528891995938,50.31368649347627],[4.470759129757801,50.31880115862501],[4.474950725216444,50.32750503972533],[4.504460161068079,50.329023667001394],[4.507905113699897,50.32510475422988],[4.505199512148002,50.32167129625291],[4.517900770906987,50.31844998543714],[4.520208808152304,50.314981495987354],[4.565582081638167,50.32289097381777],[4.590361254018038,50.32194537519088],[4.593778513456969,50.32675071865375],[4.593633363647756,50.33969252828756],[4.582364487969842,50.3416427498239],[4.588742863034362,50.34978217779405],[4.581897213627347,50.358122667637545],[4.584243477018636,50.36447213505347],[4.594279359285405,50.3727066199061],[4.594200102294391,50.380500116682526],[4.606226098399355,50.383460519534154],[4.605474406474258,50.38682473987291],[4.584364027137887,50.397594174343965],[4.603657779553163,50.40283939393008],[4.610627211498597,50.4218894794883],[4.617267837560323,50.42517265786293],[4.613434464436336,50.43032626380924],[4.605540179480261,50.426342577885606],[4.59012728298446,50.43299554569434],[4.582697060637114,50.43197435317477],[4.584017606874462,50.4384384990535],[4.57264769201724,50.4421414571392],[4.581655042659378,50.442158266693305],[4.584065437823492,50.44576672294169],[4.573158832508131,50.453497953833306],[4.588873844544475,50.45758802390424],[4.587133488868887,50.46302081470781],[4.594814512988018,50.4674988192819],[4.600708301825065,50.47667450076213],[4.587465984962076,50.48981989741531],[4.590523216538546,50.49086408769317],[4.586323463110669,50.49372699031226],[4.593654783845959,50.499373086954456],[4.585440377527076,50.4957344087412],[4.578925462025379,50.49955033589868],[4.561980617666879,50.489302186175195],[4.55961677618359,50.49316661980055],[4.563543083319074,50.49765701391507],[4.557322081996875,50.50552816639061],[4.563106993539925,50.50841889445158],[4.565522697066121,50.51965100847263],[4.573699700826451,50.52107660340018],[4.580470578273617,50.530173088954946],[4.577469831342724,50.54235535399488]]],[[[2.863098498299137,50.708281687074056],[2.869722776043189,50.70325663251179],[2.879588953434792,50.702849869422046],[2.88534339801462,50.706481180895906],[2.901161678150049,50.6928494437663],[2.909900454423271,50.69365527372271],[2.908599867179338,50.70184385442397],[2.923670271269872,50.7034899199797],[2.929904243312463,50.710800823265195],[2.928826190823359,50.72328431320518],[2.931907388693041,50.72851841227306],[2.944213560998949,50.731258888854],[2.937830325388838,50.73895457295014],[2.938870791770934,50.74525988469072],[2.955473867687199,50.75353956396422],[2.963178628367174,50.749864113643355],[2.972980636915498,50.75048875107149],[3.029520201089108,50.78011313292247],[3.013345237774135,50.783523830521624],[3.014666888306931,50.78996792877436],[3.008577007720138,50.79524509293491],[3.015031548724959,50.802672210720026],[3.011263136176864,50.80751220670408],[3.000018910936785,50.81079146276732],[2.937183242247116,50.793606756397786],[2.947044113609737,50.791006809989476],[2.957880584198851,50.782102002003256],[2.959999714278893,50.77349930713643],[2.918801190649678,50.763962963273386],[2.922004207143296,50.75703206984063],[2.917841946966933,50.756248143290804],[2.888538011400839,50.7533267408646],[2.878219922296332,50.76153604062133],[2.875818518205772,50.7611679988418],[2.877597785545692,50.75427928641528],[2.870513722024089,50.75456533979888],[2.86963072515941,50.76002898473103],[2.8421201690481,50.75143867797324],[2.852685236432325,50.74042033568496],[2.842212706269279,50.73570126695543],[2.869607437001452,50.7129524461194],[2.863098498299137,50.708281687074056]]]]}},{"type":"Feature","properties":{"reg_code":["03000"],"prov_code":["20002"],"prov_name_fr":["Province du Brabant wallon"],"reg_name_fr":["Région wallonne"],"CODE_INS_NOM_PROVINCE":"2 - BRABANT-WALLON"},"geometry":{"type":"Polygon","coordinates":[[[4.978893603434204,50.639560150652116],[4.988115153896246,50.64542531521594],[4.990587339632045,50.65667839691982],[5.002651629816859,50.66499023608636],[4.996824029167451,50.670678931860564],[5.001130195292143,50.693777282596756],[5.017215945150553,50.70194369653394],[5.009434953851065,50.707419187028826],[5.010156792693065,50.71168142932363],[4.994434163838621,50.717583070067036],[4.997138418566002,50.7213029562022],[4.992526664822388,50.72363083936503],[4.997684064126258,50.72813879776515],[5.0076483232657,50.729030334990185],[5.008722014866928,50.733172519239666],[5.012911733075809,50.730608634706236],[5.016922885216541,50.732831349785855],[5.016629091622132,50.743622030775256],[5.020463594108553,50.74862728413779],[5.007267509587798,50.76339447861919],[4.987430143793359,50.76914945072096],[4.981726368175421,50.76978068549323],[4.978702459081385,50.7659742029659],[4.969828344691386,50.76768884906353],[4.969368442452789,50.76230830071366],[4.953410243170751,50.75478839005931],[4.953820483881525,50.750949891726435],[4.928688621786351,50.747187625409],[4.925492771626275,50.74269240230244],[4.916260651920895,50.749067002336595],[4.906519371967874,50.74946697218421],[4.911213246554845,50.755752818338664],[4.902585288334892,50.76052399645662],[4.908276426283126,50.76951885108242],[4.902269990128527,50.76807342736326],[4.899748550558369,50.77260639344403],[4.885534172177604,50.76276559851334],[4.876795920410866,50.76682244722637],[4.86095978581064,50.76386399725756],[4.846590768866468,50.76799944619665],[4.835162447507283,50.762755435433945],[4.831228061939651,50.77051747101288],[4.838547226915345,50.77289211327899],[4.835233016351407,50.77619912169642],[4.812204760617197,50.776212359377034],[4.807398170863115,50.78691241692324],[4.796458551032642,50.795472667532664],[4.766727296616333,50.804070768197214],[4.762007875422497,50.80249320340966],[4.760081765275969,50.80668273524214],[4.747647549236281,50.80708870497133],[4.735999692609173,50.80025936892593],[4.725505871921758,50.80203565595298],[4.727758132212003,50.79775433572248],[4.715485997486224,50.78891820646637],[4.710499571728548,50.79619568037378],[4.703140274577059,50.79032557957882],[4.692851521891124,50.78855203903947],[4.685748269139928,50.7948680381579],[4.674378459856828,50.795449936368925],[4.673559686277693,50.792095481298595],[4.666987050987329,50.792036476383615],[4.642153060840213,50.799056778623104],[4.646415556300914,50.786648701618375],[4.636282077415783,50.77234397909524],[4.647239009981878,50.75911136291],[4.65542638486215,50.7574648092922],[4.643555777931611,50.74595064181556],[4.634904273465726,50.74320907978485],[4.605081093549305,50.741031469589934],[4.598303727396215,50.74562650060321],[4.601121604476835,50.75552823599304],[4.596252731480305,50.763701494874134],[4.580535289794181,50.75802923847741],[4.581071793556603,50.75418622626683],[4.573581577454895,50.7482996898253],[4.575791819970726,50.74729334695229],[4.565453687828396,50.74845316558915],[4.560749061377084,50.744235524033805],[4.556353422762552,50.74878613122582],[4.534287741894573,50.73915338610257],[4.529832056629653,50.74088004149711],[4.524965729689741,50.738421982344796],[4.531742966860532,50.731276896776855],[4.524074589959258,50.727332373119665],[4.514483171823103,50.729317190453976],[4.509677755410801,50.73527766748283],[4.500386371259553,50.738342113850706],[4.501321367243293,50.7439647879755],[4.495088303591367,50.74039793628892],[4.491804668772538,50.74323679547658],[4.501553670644297,50.753797755508785],[4.494189582671784,50.75710188461226],[4.485492999820714,50.75181655971583],[4.482541507721889,50.75450404675973],[4.480241103000203,50.7514968410425],[4.471104453664837,50.751713956298545],[4.463603400648837,50.755120246347246],[4.424134670206885,50.7358720145335],[4.395733993712488,50.735118265646804],[4.371859923929428,50.729500316772544],[4.372730638470154,50.71621815916618],[4.351501855014382,50.71510133335225],[4.338069972302366,50.73410837741291],[4.333586244309251,50.73360637166826],[4.323827004892044,50.72890736369919],[4.324183245891883,50.72377934485078],[4.333089247317962,50.72639254295186],[4.330826009776697,50.72073576908689],[4.335336448271569,50.716627135983465],[4.328424438686588,50.71840905607619],[4.32646943685315,50.71540554889974],[4.322989436364651,50.71990589734996],[4.313724522407458,50.72026745671819],[4.308199121775443,50.70639825075762],[4.311154175751624,50.70291858137633],[4.290355302225384,50.6940766753046],[4.284470218524794,50.698086553520646],[4.261584156684294,50.70043364560005],[4.247642080577554,50.68993094427165],[4.242427502185283,50.69020088014122],[4.231233062764338,50.698890177287645],[4.208970497416147,50.708091727268794],[4.182048224126502,50.706664202224374],[4.17209034115362,50.721620869593345],[4.15635218867541,50.72907551682117],[4.152347272892576,50.72869449691246],[4.15803197248068,50.727394026162244],[4.152849327475781,50.72476462229639],[4.142389355605217,50.7289701913119],[4.141376326333881,50.723213152518646],[4.134556392220978,50.716590638947665],[4.117045549013831,50.71270386735527],[4.109180038230976,50.71623342442696],[4.097343148752744,50.70787754016512],[4.100468166382513,50.705946911229745],[4.111010883600168,50.70964608164288],[4.113314395262222,50.70514426592325],[4.092201834593024,50.70108689526926],[4.099615340465347,50.69244705589352],[4.094900502810057,50.67976483191353],[4.097234659256495,50.67604402108418],[4.091299633866341,50.669420119223076],[4.100304566272236,50.662939719631325],[4.097565700346025,50.65236562296632],[4.092772464432318,50.65352295772082],[4.093814826292739,50.65568524037184],[4.091562407255143,50.65349337273829],[4.106509184301314,50.63225156178326],[4.116426543114928,50.63487931032141],[4.132701097631912,50.62932076708754],[4.141015738040016,50.63176004832339],[4.177349986304113,50.66338516195599],[4.182357334921187,50.66205554089157],[4.204436129572724,50.646941097885254],[4.197035935572416,50.63492220332843],[4.200145149371378,50.63198704019289],[4.199251317992649,50.62455988907617],[4.23110958130477,50.62454256254268],[4.24462378317663,50.62078277910914],[4.253652294231016,50.61592143500258],[4.245571637237235,50.612259253816084],[4.251673387282039,50.60122338681405],[4.246416549187213,50.597033598712315],[4.260705943383848,50.5928724850894],[4.275036545681325,50.59586237099721],[4.274816090987597,50.592836421591166],[4.298942011721557,50.577021441636866],[4.302341272217109,50.56762987116101],[4.334379219386155,50.568924372958776],[4.336463534609036,50.566820648963834],[4.33081415691345,50.56030107723374],[4.334900744806134,50.555129224765636],[4.325149440427324,50.5493982081722],[4.331434597061904,50.543412459229934],[4.344638069374926,50.54871743847695],[4.341761258863573,50.552597951240266],[4.357248369538874,50.55619835104401],[4.358970267890805,50.56294405525804],[4.376906852816763,50.55930231811718],[4.382292687404337,50.56404013872822],[4.417121224427125,50.56456706580285],[4.421854934335252,50.55840133113933],[4.443664116168688,50.56011693354341],[4.45048293212874,50.55407625173836],[4.469519437200585,50.55891092186445],[4.477322868211008,50.55085905433452],[4.465962833330647,50.54639221949483],[4.467542611727451,50.53793093191638],[4.463503322146169,50.53135597428195],[4.467362572016659,50.527760977360366],[4.474315659801661,50.536134436628814],[4.484073055710447,50.53361565139471],[4.490485228257405,50.53795276055104],[4.503509875342198,50.539638845411986],[4.502625223986762,50.52845694608913],[4.512713096351297,50.525404590256635],[4.577469831342724,50.54235535399488],[4.575148986345662,50.56083712970054],[4.589128227318536,50.56244567323424],[4.602093593429662,50.56930520015957],[4.617876407156362,50.569571679225],[4.621343632805145,50.56156067635902],[4.633641017558598,50.566228473382374],[4.637608407861695,50.56249400451109],[4.641761932536594,50.564992243933915],[4.645016906038682,50.56025635522963],[4.668564297537145,50.56576666208719],[4.673117828294755,50.57089852339725],[4.662048369444403,50.57647438199393],[4.656827163215215,50.58588034213824],[4.656224220098411,50.59984046168396],[4.660407158515394,50.604499340349356],[4.672618990024527,50.60812673895464],[4.678707461166614,50.60302943926987],[4.704758503460738,50.59422575557424],[4.71202585230623,50.59623706952139],[4.707416643624246,50.603994451763725],[4.714151172009394,50.60842800689467],[4.734510428857119,50.610647680854434],[4.745373135842847,50.60101614283379],[4.740974188709067,50.597978973348724],[4.746807526662407,50.59255624060768],[4.744530778252821,50.58884489199436],[4.76607181901028,50.59969984454515],[4.779669372636531,50.60103176208285],[4.786952043217819,50.59813975807663],[4.791637190303798,50.58965821767979],[4.797011138303122,50.59200721075533],[4.787759308953396,50.59842100568986],[4.787788007708648,50.60201256461137],[4.90065187408057,50.6224992920599],[4.897647091650138,50.62798131202444],[4.900140212197106,50.62880804163125],[4.914718477352361,50.62586503323863],[4.929291990642983,50.62740057554615],[4.941023818643727,50.636049658734926],[4.941114785939138,50.64339827906724],[4.950599574907757,50.64692185131358],[4.956812245102394,50.64486680869028],[4.965215610043058,50.64844417666073],[4.978893603434204,50.639560150652116]]]}},{"type":"Feature","properties":{"reg_code":["03000"],"prov_code":["80000"],"prov_name_fr":["Province du Luxembourg"],"reg_name_fr":["Région wallonne"],"CODE_INS_NOM_PROVINCE":"8 - LUXEMBOURG"},"geometry":{"type":"Polygon","coordinates":[[[4.968691438215243,49.80159440272086],[4.997079302415063,49.800086744555806],[4.997154085049597,49.794806917797665],[5.007129231404393,49.78735816254475],[5.008546256933244,49.78203582969174],[5.061612573593158,49.767360458090394],[5.06307458447761,49.76234939320896],[5.071833857894508,49.76098889899012],[5.087711981181803,49.76614491386122],[5.093707150342373,49.76390781353454],[5.118767639823131,49.738689205080995],[5.125145981080441,49.72676906551475],[5.12305279834668,49.71722895252609],[5.125967968642779,49.71242359131141],[5.140495192414071,49.713457224004905],[5.144221567970194,49.7096379508365],[5.153976179873466,49.718862331826486],[5.165952981401243,49.71179547314147],[5.164375315717052,49.69338703182917],[5.191338034514692,49.694999666004556],[5.196843590591085,49.692161268187675],[5.205692541768741,49.696346872491375],[5.21800515315694,49.687684549077666],[5.231353871167234,49.69165177381522],[5.242982917384764,49.68931415385745],[5.242649370098555,49.68545965500106],[5.256169608454171,49.69421342078865],[5.268510379115293,49.69656919621239],[5.279849830167082,49.69011800493613],[5.285403151203455,49.6828946764125],[5.309151472390115,49.67195291539731],[5.332382314882105,49.65411478153335],[5.318195061718856,49.64635772588637],[5.304989733575546,49.630215308029],[5.304679194646528,49.624742468242964],[5.310842288851832,49.61849594419259],[5.312090716009187,49.61165199041507],[5.340479890929863,49.61668454018358],[5.338367195084279,49.618077085529265],[5.343236182228015,49.62193677054495],[5.34437282197233,49.62860164252514],[5.351912670703274,49.63091546442251],[5.363747913430348,49.62322746666726],[5.375477844226554,49.62344573041525],[5.411184039421337,49.608273172233595],[5.418237019712389,49.59980401829303],[5.431135098719872,49.59252618029409],[5.429379174916902,49.58786428320186],[5.437647696364013,49.56992184165563],[5.457026222716615,49.56698106990674],[5.44771562935637,49.554507789309945],[5.441388845260096,49.552276878906675],[5.465339275423275,49.538927422060446],[5.467047765723911,49.5258883210315],[5.447701731367277,49.51776006033621],[5.465927078400352,49.50884685439013],[5.465075768170292,49.49881617625727],[5.474213576637233,49.49726242329554],[5.483846822710822,49.50742187665516],[5.499725285526214,49.506581400938956],[5.541170082823216,49.51527406307663],[5.545590261748771,49.52373650378549],[5.556325060126636,49.52919054476495],[5.563436993048443,49.52556542848568],[5.571254563528519,49.52797794706132],[5.591287760871402,49.52293840198433],[5.602103065460441,49.515372221001435],[5.603949976004353,49.5087317578043],[5.611050533304499,49.50596588441716],[5.621488315790939,49.51963992504389],[5.615642323988537,49.52721042834392],[5.619934206902366,49.53268353088487],[5.632621370856315,49.53998677469711],[5.63079836909557,49.5419731746484],[5.633701261927782,49.54437265867488],[5.643471536280764,49.54688913026689],[5.642847692796657,49.54987951224738],[5.660350843014655,49.55325788525518],[5.669258904134835,49.54825362230402],[5.682076018010195,49.54799026020069],[5.681145919371793,49.545360002172195],[5.690851037428552,49.546195559294766],[5.704984702922674,49.538860950743015],[5.720447497025288,49.53973011620982],[5.724178723143225,49.544116952700605],[5.731985887763534,49.544858361448526],[5.738593727886747,49.53870405088247],[5.757714906498274,49.54297347702622],[5.755810315250966,49.556292321367685],[5.760015763284324,49.56191466217704],[5.774454171830755,49.56320072722067],[5.792113592976661,49.55181661547815],[5.818472847635969,49.54644329670979],[5.826050493819293,49.55220786346973],[5.828002266095246,49.54999261084712],[5.8419544940981,49.553096907222404],[5.846095673153611,49.55626109045594],[5.843603001541695,49.56068153707883],[5.872747595855,49.57434184888673],[5.869739363900824,49.57673619259468],[5.871894844237017,49.57960606476038],[5.86596993156195,49.580533861284046],[5.872723229522183,49.58316689916833],[5.871350382640559,49.58802140201155],[5.850086571259109,49.58693175825285],[5.847759657554263,49.59594190085103],[5.876515147984595,49.60847750454551],[5.87564382686037,49.61883564644333],[5.886399246267174,49.62732605147314],[5.88385965645538,49.632979456206115],[5.892282089554531,49.636235453069865],[5.898962218910058,49.634378758335494],[5.907713440418895,49.63907277056272],[5.902212127937418,49.645947063902206],[5.902221697657249,49.651792746795635],[5.905057433989436,49.66072302966685],[5.910673509340421,49.66247413164225],[5.908128591685045,49.66566281055033],[5.901468369878593,49.66449315612182],[5.902039207182774,49.668161973851205],[5.892752912900908,49.66618617848431],[5.889812867695359,49.670507683987196],[5.886296854290318,49.66795780155141],[5.865407516561797,49.67605053115942],[5.861804528108121,49.681055520484335],[5.865709193319154,49.693026302968185],[5.886984997759208,49.709311302144805],[5.874741328378802,49.71590671851027],[5.875167990858391,49.72187960991857],[5.864785219900126,49.72695044145461],[5.844585658941749,49.721336396931974],[5.826285890606314,49.72356355771027],[5.82537086810503,49.7320372813439],[5.828080633900613,49.73296513121199],[5.827438677211183,49.7391305351479],[5.832645068360435,49.741470652459896],[5.832364106720183,49.74694303275431],[5.81791014328075,49.75400943641208],[5.815936912720861,49.76221495986919],[5.8094598891448,49.765340229311846],[5.807352423948087,49.77220951921829],[5.791952611426006,49.786904132838956],[5.790402116122818,49.79572531063769],[5.785186934740683,49.796203056684725],[5.781370184851302,49.792322927885195],[5.753090901034202,49.79339680188626],[5.751177725348501,49.81484634137547],[5.746314917487322,49.815783803496856],[5.743394016271862,49.820978921588406],[5.748190823812454,49.82466320561658],[5.739738781024673,49.836572672837974],[5.750430663634624,49.83992626054777],[5.749056856257683,49.84701731931068],[5.75825863734268,49.846611798658415],[5.755130758362624,49.85158895618188],[5.745916151291517,49.8525330873321],[5.760646188965901,49.856715350676936],[5.75461848126317,49.86233524298222],[5.756385811041613,49.866380779966406],[5.75262875745005,49.868384391793576],[5.755262909800484,49.872743695857345],[5.765000978788867,49.86933404111307],[5.769616454294711,49.87258312958806],[5.774516568548848,49.86733174340225],[5.777552092494444,49.872072444001155],[5.78385384738345,49.87315611611296],[5.777844937400734,49.875825819078415],[5.78353275853332,49.87743223632873],[5.778012536643764,49.88382505062836],[5.735679149710897,49.896902791642106],[5.739980524767137,49.904205297967664],[5.764000631320181,49.9157469044668],[5.760651240923115,49.91741777608634],[5.764337964316512,49.93148013953539],[5.770933849491298,49.93167017914677],[5.770441901309859,49.936673371330265],[5.775158090417571,49.93771048767384],[5.7703691931064,49.949584629618265],[5.777227681781052,49.95773433353515],[5.775024296443895,49.960794643658446],[5.79005119973341,49.96171731189041],[5.796029008880105,49.965716925683836],[5.80639805390222,49.9622940111243],[5.810536494361211,49.96409239728105],[5.813147144160698,49.97258138305524],[5.830423633989505,49.97594341207389],[5.838579186656194,49.98229829547264],[5.839371170084147,49.989598416507775],[5.832416399844872,49.99052006098879],[5.821593389009588,49.9990388091615],[5.81898652453152,50.01282124455099],[5.843753377305181,50.01945040419152],[5.859904761034441,50.028890425282086],[5.856112299495759,50.03626554011357],[5.869893110869154,50.04592005718588],[5.854245697949616,50.05888215227056],[5.860632481461156,50.069253795743094],[5.887438721951022,50.0796449176797],[5.88645475129692,50.090860196274576],[5.894580337547374,50.10105365009317],[5.895321114751693,50.112197580837964],[5.914238807377759,50.12189305114621],[5.961331122397294,50.131358917452445],[5.958548797953629,50.13887250285401],[5.961284401679203,50.14982039968559],[5.958738282930986,50.15051417191839],[5.967229228826919,50.15534971637504],[5.961881693538114,50.16146311412966],[5.963743004586852,50.17260392338125],[5.999785274708005,50.1758510298325],[6.026166432441366,50.18331524438355],[6.020777385849119,50.19365208254843],[6.033088407953873,50.201221960087146],[6.034387142735854,50.205950654945944],[6.027104404152492,50.20991958217734],[6.020704011923099,50.20567218084334],[6.012362221257588,50.206008215230185],[6.015073002932001,50.21443119140895],[6.008691837694398,50.238137893078125],[6.016510197013896,50.252694321346794],[6.011458109450309,50.27006930317884],[6.017283880748162,50.30018913989187],[6.014038262057775,50.30208758869917],[6.013715806157202,50.3106274037415],[5.983367662507419,50.320377344378024],[5.978663021559099,50.32700233673288],[5.980170168871772,50.32982866699036],[5.960750565019031,50.3273807393195],[5.95408743468022,50.33423641126833],[5.937397277297079,50.33834842644586],[5.928353891212774,50.33248673142238],[5.921431999067455,50.33294821029102],[5.901335229030948,50.33939520996719],[5.884840039801214,50.339853606912655],[5.862009947547282,50.34829519888515],[5.851287604164514,50.33528238126666],[5.850415079569865,50.326809525248265],[5.862396411112481,50.325220928539416],[5.869251709999326,50.319447617717664],[5.869038608810915,50.314149420183746],[5.863269120038477,50.30418789045402],[5.854863711013742,50.30000765795714],[5.859044193031755,50.295542082519056],[5.846200166724882,50.28842735557097],[5.845027528148035,50.28063405646141],[5.881252737199265,50.280141456181596],[5.873743169552399,50.27660472659976],[5.87050350050936,50.268397979667796],[5.839148451382798,50.26135526155571],[5.827483397673377,50.266593212779696],[5.80986912377639,50.2643168274088],[5.807709030592395,50.25420247960805],[5.805971748280008,50.260928918863385],[5.799870691324961,50.265018103258846],[5.781784817713699,50.26268009728463],[5.763545793058572,50.26810591122444],[5.751059618969949,50.26604588501061],[5.744576139906235,50.26057349818547],[5.723674144896579,50.260856840134856],[5.717462533654062,50.26667711029457],[5.731424351801013,50.27523859878858],[5.735356099472845,50.288645021890495],[5.747600651650981,50.29538775091147],[5.748574278125413,50.30123940911725],[5.722451941380182,50.30174328539288],[5.706483149159055,50.31937947760825],[5.70281633409534,50.32932726599856],[5.712006483277872,50.33063015589623],[5.714530368592154,50.33444863967477],[5.709855801838104,50.34262809471688],[5.714389979533379,50.34669902370816],[5.7107703944137,50.347638391810264],[5.719432102234352,50.35230891727542],[5.720258208554528,50.35818629195435],[5.706664730074806,50.36110152274226],[5.696329869668453,50.357145316981914],[5.67308607459698,50.35625904400047],[5.670163725624605,50.35725145742033],[5.671221720613479,50.363885372477554],[5.675577128904182,50.36844575150565],[5.645823402672204,50.365947170768024],[5.630611495157683,50.37203826741258],[5.636241345856146,50.376038505581086],[5.614247533753715,50.382371600387835],[5.593643621181449,50.3981841800728],[5.586804102568195,50.39947432485668],[5.569252252077866,50.39655914253815],[5.553808121640833,50.388510930300804],[5.536018024275934,50.392059792188704],[5.528918093411633,50.39727338093988],[5.536190474739874,50.40205604773252],[5.519934836267645,50.402697051443226],[5.518735767943207,50.410498401994715],[5.509362697248891,50.41452057695725],[5.513339250359413,50.41801218713594],[5.510643433437367,50.419384650548054],[5.514919691142485,50.420533203918545],[5.511165856509318,50.422129696538605],[5.512533873520091,50.42515952044738],[5.476596902203604,50.414164434645016],[5.467403091624091,50.407535869157144],[5.455339433461527,50.41053321410095],[5.459115461270768,50.41257419223508],[5.45066065526895,50.417634253241566],[5.453291975515371,50.42144205543712],[5.441275195924075,50.42071669682076],[5.433829373486737,50.42390437792997],[5.435409174730103,50.42603804218832],[5.429618547245171,50.430226186605715],[5.406499091733603,50.42565755451478],[5.406686134667513,50.41224270779791],[5.422487094493309,50.412349684577975],[5.428485243705769,50.402675201644655],[5.392941737633461,50.379437265976506],[5.401423845355153,50.373584719500414],[5.39744912334983,50.369371025253095],[5.402941689584463,50.3675977704494],[5.38107134699917,50.351876004371704],[5.386025738093303,50.34404841540224],[5.396113177317207,50.340964576245966],[5.395791306876428,50.33552549305793],[5.376937730910837,50.32680572956928],[5.350637307188121,50.3210306286136],[5.34237833016632,50.315830415253124],[5.341395907771314,50.31151264244858],[5.347410682699741,50.30495345912282],[5.361835189908014,50.31765425219018],[5.381598075994058,50.31376945832237],[5.388457026933342,50.316073180443325],[5.393106486796163,50.30979657835682],[5.390157907787435,50.3066017478913],[5.393751869595135,50.30002804015494],[5.388673236963602,50.29829774018473],[5.395361645638295,50.2940695697088],[5.394713961686019,50.287155791821995],[5.377005934511435,50.27826729385661],[5.358778816795917,50.275034831486394],[5.331179865358725,50.25439158550452],[5.313377000414518,50.24549724632222],[5.293947358210666,50.239005484300264],[5.283159473775004,50.24903491164751],[5.273278421834389,50.242402212044944],[5.252010740726617,50.238200813929765],[5.260299696459524,50.23245661535804],[5.2587074619156,50.22739694536499],[5.234623403097468,50.22161006688801],[5.228585438870792,50.22779274073338],[5.206950259344839,50.217110284382045],[5.231850670000563,50.214730855659184],[5.245970237273199,50.20397796296072],[5.234741515227819,50.19584006349767],[5.24257991868186,50.19305214588843],[5.247210879528749,50.19582236502095],[5.24880238869044,50.19092421216376],[5.242764755844227,50.18726616366935],[5.266687831445227,50.168276929978646],[5.267483748222215,50.16288663914434],[5.279484624469743,50.159295956477884],[5.274818239265771,50.156388795574976],[5.282612181056073,50.15475454671555],[5.283289079045215,50.14804928975344],[5.273790580813404,50.145511699001005],[5.27206190177642,50.14100222975763],[5.266241003897141,50.14275052204882],[5.242309169421354,50.134194750488184],[5.247300802625499,50.12716362141568],[5.253722745755204,50.12820110501154],[5.268329036749154,50.11957947143126],[5.269255259624893,50.11174583055463],[5.263368985530638,50.10858438582657],[5.236436118325193,50.110174932382236],[5.226660799853555,50.10766629226817],[5.226873610881571,50.10217869599287],[5.200175549467828,50.096786545652606],[5.199115158945485,50.0996275846477],[5.188266982451096,50.097771236000014],[5.188625948416779,50.10080199071496],[5.158382610601787,50.10034313077502],[5.152715112826047,50.09440983202899],[5.136478517856249,50.09439338329328],[5.132357072780556,50.09883173589032],[5.12324389434743,50.099720825823596],[5.071554444274395,50.09359355351039],[5.060322060680734,50.107635330355485],[5.068150288115063,50.11735841203558],[5.065835658124421,50.11879620893723],[5.068406633577274,50.12239965594917],[5.065705115207306,50.122784153452166],[5.052778448883955,50.08807872536718],[5.052764140427954,50.08343108966804],[5.060719980145087,50.07778755408993],[5.058419618147048,50.075169106870185],[5.049227267922021,50.07773381888448],[5.05455782606076,50.073196794046915],[5.053647123477328,50.066999823041265],[5.046441497093259,50.06101509309704],[5.042074412749946,50.06153965401845],[5.041464537455632,50.053122914708894],[5.028292003618875,50.04961018921553],[5.027339387700934,50.045319304555875],[5.010974534582223,50.03797684690708],[4.997430588779967,50.045122580295015],[4.993782028837133,50.03158855815047],[4.988182638031176,50.027214055239234],[4.979244383569118,50.03075003639797],[4.973346608026949,50.02861904945074],[4.996923656725921,50.014627212912664],[4.995452155829844,50.00628955588951],[5.012631897434444,49.99742446815047],[5.012135748779325,49.992179811335234],[5.007157468329928,49.98940023758884],[5.008532963665878,49.98143759114493],[5.026147422921716,49.97785479670531],[5.04297597548718,49.9812182732091],[5.049563542277668,49.98674501497671],[5.052813118750264,49.98337037765274],[5.060357097982951,49.984418800448196],[5.066919298548756,49.98185180630542],[5.066020735270513,49.97559130432951],[5.072068776041928,49.97083031342859],[5.091777623558268,49.96136201641873],[5.101536568555757,49.96079051027242],[5.102601333271679,49.94672524096155],[5.098309426505162,49.937116627253516],[5.111857778346933,49.92398206215369],[5.119592552229331,49.922641104724896],[5.098476891360356,49.920492275456915],[5.072092292155753,49.912480463819534],[5.064649374715276,49.901300701187665],[5.057446697247211,49.89726354627862],[5.046894372684648,49.897804734930894],[5.042317616824023,49.89229447600202],[5.048202774531491,49.88818457180565],[5.062574754577065,49.88658075484377],[5.058447335346846,49.883195014974284],[5.037375668362191,49.873001451383026],[5.020661903318564,49.872969839458825],[5.026322337324886,49.870800334038634],[5.024004693351104,49.86439189958022],[5.012806151065094,49.858133211601306],[4.989472998533483,49.85285091420945],[4.988519524361664,49.84737062266483],[4.981201191006652,49.84287505333686],[4.985464074580912,49.838217312298035],[4.984432726011204,49.82631532665074],[4.990502796693177,49.82437800267569],[4.988014295238549,49.82042063615066],[4.977067967327512,49.8199575858202],[4.981089851630209,49.816451993813736],[4.969185961725698,49.81064198413162],[4.968691438215243,49.80159440272086]]]}},{"type":"Feature","properties":{"reg_code":["03000"],"prov_code":["60000"],"prov_name_fr":["Province de Liège"],"reg_name_fr":["Région wallonne"],"CODE_INS_NOM_PROVINCE":"6 - LIEGE"},"geometry":{"type":"Polygon","coordinates":[[[5.392941737633461,50.379437265976506],[5.428485243705769,50.402675201644655],[5.422487094493309,50.412349684577975],[5.406686134667513,50.41224270779791],[5.406499091733603,50.42565755451478],[5.410498212356634,50.42741158963718],[5.429618547245171,50.430226186605715],[5.435409174730103,50.42603804218832],[5.433829373486737,50.42390437792997],[5.441275195924075,50.42071669682076],[5.453291975515371,50.42144205543712],[5.45066065526895,50.417634253241566],[5.459115461270768,50.41257419223508],[5.455339433461527,50.41053321410095],[5.467403091624091,50.407535869157144],[5.476596902203604,50.414164434645016],[5.512533873520091,50.42515952044738],[5.511165856509318,50.422129696538605],[5.514919691142485,50.420533203918545],[5.510643433437367,50.419384650548054],[5.513339250359413,50.41801218713594],[5.509362697248891,50.41452057695725],[5.518735767943207,50.410498401994715],[5.519934836267645,50.402697051443226],[5.536190474739874,50.40205604773252],[5.528918093411633,50.39727338093988],[5.536018024275934,50.392059792188704],[5.553808121640833,50.388510930300804],[5.569252252077866,50.39655914253815],[5.586804102568195,50.39947432485668],[5.593643621181449,50.3981841800728],[5.614247533753715,50.382371600387835],[5.636241345856146,50.376038505581086],[5.630611495157683,50.37203826741258],[5.645823402672204,50.365947170768024],[5.675577128904182,50.36844575150565],[5.671221720613479,50.363885372477554],[5.670163725624605,50.35725145742033],[5.67308607459698,50.35625904400047],[5.696329869668453,50.357145316981914],[5.706664730074806,50.36110152274226],[5.720258208554528,50.35818629195435],[5.719432102234352,50.35230891727542],[5.7107703944137,50.347638391810264],[5.714389979533379,50.34669902370816],[5.709855801838104,50.34262809471688],[5.714530368592154,50.33444863967477],[5.712006483277872,50.33063015589623],[5.70281633409534,50.32932726599856],[5.706483149159055,50.31937947760825],[5.722451941380182,50.30174328539288],[5.748574278125413,50.30123940911725],[5.747600651650981,50.29538775091147],[5.735356099472845,50.288645021890495],[5.731424351801013,50.27523859878858],[5.717462533654062,50.26667711029457],[5.723674144896579,50.260856840134856],[5.744576139906235,50.26057349818547],[5.751059618969949,50.26604588501061],[5.763545793058572,50.26810591122444],[5.781784817713699,50.26268009728463],[5.799870691324961,50.265018103258846],[5.805971748280008,50.260928918863385],[5.807709030592395,50.25420247960805],[5.80986912377639,50.2643168274088],[5.827483397673377,50.266593212779696],[5.839148451382798,50.26135526155571],[5.87050350050936,50.268397979667796],[5.873743169552399,50.27660472659976],[5.881252737199265,50.280141456181596],[5.845027528148035,50.28063405646141],[5.846200166724882,50.28842735557097],[5.859044193031755,50.295542082519056],[5.854863711013742,50.30000765795714],[5.863269120038477,50.30418789045402],[5.869038608810915,50.314149420183746],[5.869251709999326,50.319447617717664],[5.862396411112481,50.325220928539416],[5.850415079569865,50.326809525248265],[5.851287604164514,50.33528238126666],[5.862009947547282,50.34829519888515],[5.884840039801214,50.339853606912655],[5.901335229030948,50.33939520996719],[5.921431999067455,50.33294821029102],[5.928353891212774,50.33248673142238],[5.937397277297079,50.33834842644586],[5.95408743468022,50.33423641126833],[5.960750565019031,50.3273807393195],[5.980170168871772,50.32982866699036],[5.978663021559099,50.32700233673288],[5.983367662507419,50.320377344378024],[6.010958108748843,50.313236565857025],[6.017283880748162,50.30018913989187],[6.011458109450309,50.27006930317884],[6.016510197013896,50.252694321346794],[6.008691837694398,50.238137893078125],[6.015073002932001,50.21443119140895],[6.012362221257588,50.206008215230185],[6.020704011923099,50.20567218084334],[6.027104404152492,50.20991958217734],[6.034387142735854,50.205950654945944],[6.033088407953873,50.201221960087146],[6.020363046082691,50.1917344140905],[6.026166432441366,50.18331524438355],[6.029545812162831,50.16591944308635],[6.038830208973677,50.159961485194955],[6.064248397809783,50.15340408654442],[6.071806697677079,50.157362872194014],[6.078781812926205,50.156535505988224],[6.079241681940591,50.17078527717296],[6.102452664712728,50.1705496548931],[6.119767741981303,50.1633694542553],[6.114963749261335,50.15556546044024],[6.125017359936419,50.149767379968715],[6.117756515617724,50.14727916770639],[6.112310439259226,50.136016847226244],[6.120277900330064,50.13629548910966],[6.134218646934197,50.12958234259867],[6.137791781268279,50.12984964901497],[6.138711489805492,50.13489132017918],[6.147042126779147,50.135666044159905],[6.154767743399303,50.14185506067441],[6.153065401716165,50.15013207714991],[6.148506436076101,50.15186759699118],[6.140419413738855,50.14796219222466],[6.13196996504911,50.15349906919757],[6.142711258678722,50.15572253794997],[6.147589579206195,50.160599854763376],[6.139559648648365,50.16824148013855],[6.147496709886893,50.170218287925685],[6.144184720486795,50.17348930810999],[6.146871365308504,50.177739252291026],[6.160400143074251,50.17156071079553],[6.163345384925722,50.178417638907185],[6.184259068033895,50.1782177711943],[6.192506977629143,50.182066791255636],[6.185923377254245,50.18406492348678],[6.1902779731705,50.18759871230513],[6.184029319939496,50.19289186828037],[6.185824146344119,50.203645910468644],[6.188889361044723,50.205283932878736],[6.183939683114566,50.206891844050105],[6.177979108670434,50.21649509788681],[6.166494596979637,50.21959532703048],[6.167975146115462,50.22442870701026],[6.177120778860917,50.226762100011456],[6.173700033393271,50.231593678409475],[6.175604105720824,50.235317709435904],[6.19534509276688,50.23694947661132],[6.200567886773191,50.240067334543625],[6.205358934018948,50.251167586920296],[6.215782861264816,50.25693330805588],[6.218483559278541,50.25448871084581],[6.223623218124769,50.2586595737993],[6.245671158241595,50.26196296159516],[6.259049371139032,50.26778986321208],[6.26170497720036,50.26497076199046],[6.278745434151574,50.266661294437554],[6.291110331996695,50.27653786112261],[6.292215594789041,50.27879909626983],[6.285157055736571,50.284151203806545],[6.2885230435605,50.290543973293396],[6.285886498759044,50.29387726912258],[6.295586393553205,50.299833462938416],[6.298514743361348,50.30425000499255],[6.296113732772779,50.30897385410877],[6.308621456662387,50.31086280399911],[6.306405561718527,50.32015740616525],[6.316883334905119,50.32140349337011],[6.317862686497807,50.318972365304376],[6.327266435821358,50.32469320640069],[6.332992545232345,50.32347807520936],[6.334663024586624,50.31636140222212],[6.341386820899235,50.3185616708062],[6.340594371907016,50.315645669378895],[6.348154339026714,50.31506991903503],[6.362724731863058,50.30555121273787],[6.358304957577685,50.309704540611946],[6.361492209406594,50.31480404998428],[6.370215094274424,50.31251219016995],[6.382463799120277,50.32216484236922],[6.405532344566002,50.32333583880027],[6.408098171705473,50.335414527380756],[6.400234617689554,50.33868949664883],[6.39869786568038,50.34556974688144],[6.3670305107532,50.35876820425319],[6.369768327407771,50.36105514511217],[6.36087460467846,50.37128154377819],[6.343363553902635,50.3795714096934],[6.365619247606328,50.40132390656722],[6.369959464928213,50.40889846923816],[6.366973287209094,50.42001657687957],[6.375955848730416,50.4314789481186],[6.37746451575632,50.43880734291277],[6.371815577918963,50.4555074493201],[6.362946829674369,50.45378748458525],[6.340405213932178,50.46226282352],[6.343816624523597,50.46867640890083],[6.337512784277733,50.474591266067165],[6.341632718158423,50.4834758595964],[6.349694957104794,50.48860473095629],[6.334771008796379,50.48919209891342],[6.308970693491752,50.50147802494358],[6.297740317439944,50.4975138256168],[6.269663538982053,50.50454463872864],[6.261557129869177,50.49873956433824],[6.254528434601784,50.49944959851316],[6.25170365944622,50.503530627791655],[6.224496206843538,50.495060579015686],[6.220123507987055,50.49870171826069],[6.222537208236163,50.50151233545178],[6.219886673252828,50.50524777409839],[6.209125565214261,50.51465691352989],[6.212514341320973,50.51556267835749],[6.208256089045634,50.517308899807425],[6.206644632598215,50.523803808709616],[6.19705670027872,50.53040583178828],[6.198947190051642,50.54051734329592],[6.207697948167328,50.546720998045636],[6.210322857791809,50.55393613610079],[6.224392860272133,50.55479936952422],[6.226692646672145,50.556508530671216],[6.227562470120238,50.56168452748466],[6.234908873585104,50.565083574411574],[6.23622098541623,50.5665072108154],[6.236254096699009,50.57139345434201],[6.239128478754809,50.576582335884254],[6.240326867863016,50.586288344136904],[6.249391372797058,50.5987592002045],[6.24795346025164,50.60391714053619],[6.261720164364636,50.61137154075178],[6.274113838143049,50.62987015706308],[6.266785927716254,50.6415906659073],[6.265224027931692,50.642797587212904],[6.261582827810209,50.64333809916805],[6.244643909259538,50.6410110900929],[6.233749667454992,50.64872080773565],[6.23159188879484,50.649265597634596],[6.228147390149744,50.64883393368511],[6.226874266866352,50.64815526652253],[6.221053877914663,50.640620544011256],[6.197130369071789,50.64095434236004],[6.188203993375867,50.640052706876745],[6.183819561268687,50.64722359854333],[6.186533167950726,50.65128025308195],[6.195089873274182,50.65666442319475],[6.196490622636692,50.65819668868692],[6.195034572090729,50.66268408547654],[6.193063799405143,50.664079062131435],[6.188022266188566,50.66466717466764],[6.165834278484268,50.66213873379766],[6.161998676928907,50.671696654005814],[6.144110775190907,50.68158144954317],[6.143654369506006,50.688767145871886],[6.123619065612447,50.70680159275858],[6.124826649965892,50.71111823507234],[6.118238159640921,50.72018890868384],[6.110726583732036,50.72350740434714],[6.073145636578373,50.721010451335026],[6.044463195807977,50.72843380017116],[6.039697828295059,50.71828209386432],[6.033216779047542,50.731008216766725],[6.03966761839943,50.737468970560265],[6.040441439282462,50.745503317909304],[6.027547026945832,50.7480130294832],[6.029099757378119,50.75012793490636],[6.021006546209172,50.75428533996757],[5.983188914955075,50.75281889712583],[5.974138786136516,50.755211188382205],[5.972818970891887,50.75964687084138],[5.960759791314542,50.76230400363278],[5.931062047101999,50.75694133238587],[5.916218912744038,50.75044918272736],[5.91254553686186,50.755674060554824],[5.904848960117961,50.75522285554688],[5.901628395197478,50.75139933433732],[5.892110628544359,50.755219331256356],[5.889897127070437,50.75354091023246],[5.895330209966767,50.74555030474045],[5.906771438729508,50.74219699863489],[5.911111111833125,50.73514513901972],[5.883368428037214,50.70986480342632],[5.861289714907716,50.71743625629258],[5.819875381607377,50.713981864120775],[5.812951784645898,50.715324748280885],[5.811116975998062,50.72343427375988],[5.800152408988875,50.732115894667785],[5.80163230817909,50.73657298063173],[5.770621679055112,50.751348567652386],[5.748898560234252,50.745242335085756],[5.744775800947934,50.74911338965607],[5.747004767516228,50.752240426072994],[5.737289106807075,50.755470503434566],[5.726501404516766,50.75238674207274],[5.725762617445322,50.74671103802103],[5.722278340830788,50.7457097604189],[5.683235405681518,50.75481471077733],[5.682830060503711,50.76125823253436],[5.69874389478493,50.77961922263002],[5.691676405187945,50.81212155243335],[5.687877373238953,50.81192362412776],[5.687191777788222,50.804101294483466],[5.673815532377143,50.80521535756954],[5.67300768320006,50.80775722587337],[5.668340375531574,50.80473837212132],[5.653194008494727,50.8054444553698],[5.646242503293892,50.793032278553],[5.636221907303527,50.786194636851405],[5.626814341762064,50.78230101443756],[5.61572395289279,50.784231881967045],[5.606358578352417,50.77905829156794],[5.609085719015147,50.77676540275733],[5.592072555323479,50.773731957129954],[5.591552612973278,50.77002036253489],[5.580307368366454,50.773153382339444],[5.573414966187072,50.770928819753316],[5.568974097658133,50.76423963927294],[5.552955889329792,50.764012869500455],[5.547681197512167,50.75881727699794],[5.522347332328099,50.75846744200226],[5.519279140917879,50.74722394404521],[5.524361100942778,50.74235111672531],[5.478621119980418,50.723539965836515],[5.474092072009697,50.72592189441028],[5.475664020042073,50.73354931487194],[5.462078438569699,50.738812156965565],[5.460101406172549,50.73641386194311],[5.463156078434126,50.73058109349321],[5.454508066277103,50.72715225220745],[5.45323384487906,50.7209018374983],[5.435669554754718,50.72218324356828],[5.432345184893126,50.71810063601001],[5.428093843345975,50.72317943888714],[5.420565279586004,50.7190230319097],[5.402287775224152,50.728053867428336],[5.401750983252251,50.735213439215165],[5.394466638465199,50.734843815906146],[5.389589489624321,50.74796902880363],[5.376051720724931,50.74203997509688],[5.368027299397221,50.74696665901545],[5.350294296554743,50.74639312480642],[5.333693716068677,50.735484770632084],[5.313850254155653,50.72924875203697],[5.308089001025283,50.723808518975105],[5.310316277575628,50.7191669798667],[5.303904712684068,50.71594108439032],[5.296514797805312,50.7235768292054],[5.276307185620786,50.729034011890434],[5.264412285804056,50.717381624294234],[5.25745146264816,50.71512232253519],[5.241134462976847,50.71672419312037],[5.236688839822505,50.72665123945269],[5.229950329733866,50.71802490536446],[5.205607703029261,50.72090387267258],[5.1941356303299,50.716501863040016],[5.176966996267194,50.72344745120887],[5.169841449517683,50.722495517850454],[5.167517160049774,50.71555396708308],[5.175260133663996,50.714527826344046],[5.18055536667439,50.70467179890923],[5.165312781868599,50.695728551018625],[5.15632669503743,50.69832295058354],[5.148642194400927,50.69543341349122],[5.119335764642737,50.708278068493605],[5.103491772473721,50.709160090915546],[5.095855815955536,50.703345271050544],[5.075378936409681,50.709057891469314],[5.070376348978446,50.70647212376464],[5.064328393017983,50.71462691601325],[5.044011051461654,50.723469741421866],[5.046997394431717,50.73127419541856],[5.04245024936293,50.73407376783339],[5.04813196263751,50.73904805373045],[5.019567883230547,50.75076445004128],[5.016922885216541,50.732831349785855],[5.012911733075809,50.730608634706236],[5.008722014866928,50.733172519239666],[5.0076483232657,50.729030334990185],[4.994030300020605,50.726259927727675],[4.992526664822388,50.72363083936503],[4.997424945991269,50.71911471330018],[4.994434163838621,50.717583070067036],[5.010156792693065,50.71168142932363],[5.009434953851065,50.707419187028826],[5.017215945150553,50.70194369653394],[5.001130195292143,50.693777282596756],[4.996824029167451,50.670678931860564],[5.002651629816859,50.66499023608636],[4.988821069992114,50.653418884055164],[4.988115153896246,50.64542531521594],[4.983335633160742,50.64229560497176],[4.989799806397707,50.63674132033291],[4.981895650919702,50.63451639055451],[4.987942134043623,50.62584157025947],[4.979299883966089,50.61859428868701],[5.000328050286192,50.61041408565757],[5.003030098654759,50.60683020307961],[4.99906426710372,50.60012445470574],[5.028671843643219,50.58870210090517],[5.027588678655756,50.584519082016556],[5.034414146205565,50.58231273106389],[5.030171383788299,50.579551151726754],[5.033549846796857,50.57058391043672],[5.048567660716752,50.56110764925288],[5.044235843114417,50.557659009792616],[5.051039162252605,50.555323883353886],[5.046912635819403,50.55075579439665],[5.054241779815177,50.54112078102532],[5.038295368646222,50.537139052777825],[5.034244780264542,50.531779215011774],[5.09235987752808,50.52930338015225],[5.094950468087553,50.526546050863246],[5.090064401624457,50.52576200391282],[5.097266098075994,50.519728246427306],[5.093777888433712,50.518780601428155],[5.097431162947291,50.516527559895074],[5.094774230590843,50.51516534971221],[5.100710381532513,50.51267560555331],[5.101437433058629,50.508414821630964],[5.115301652572221,50.50371457686733],[5.14218195137838,50.51213864773178],[5.144597589406801,50.50871615117049],[5.140519895814329,50.50550841681499],[5.128977672249301,50.50266207049625],[5.133345430024317,50.4984749285172],[5.133544691587302,50.48935382271883],[5.14670365517258,50.4865494572145],[5.157430818185943,50.48940413082378],[5.159558078552798,50.487186338045916],[5.149314249648805,50.48246067577283],[5.163952343385453,50.467605847859346],[5.172380348742005,50.46933507206704],[5.179521303589874,50.475966631919285],[5.198932861241644,50.47881926291465],[5.210238084146002,50.459004088625065],[5.224833840652789,50.44237962701841],[5.230116010259475,50.44404733327225],[5.236452350828547,50.43833817251021],[5.232609252423329,50.43117656400901],[5.237195684509816,50.42702631624076],[5.221180077765577,50.41727554680712],[5.237192939518761,50.40296185837592],[5.253896122096039,50.400292887004554],[5.26001937829274,50.40342133709926],[5.274478012533077,50.398987702757836],[5.275778377072118,50.394316142265716],[5.28726403383239,50.394596529081184],[5.279149297407438,50.389286717160545],[5.281053150821369,50.37823683195571],[5.297159862079088,50.36497798438571],[5.351394318810572,50.38836554977728],[5.368364541082251,50.37986056529555],[5.382559780170062,50.38680714772854],[5.392941737633461,50.379437265976506]],[[6.189344713005573,50.56602798955714],[6.203097165972943,50.569289632367195],[6.206248644827387,50.57621296828238],[6.219651269585178,50.58165649315903],[6.225338992924034,50.590464593853376],[6.240574175718977,50.58706177447719],[6.239369205851003,50.58433026987182],[6.23887856687345,50.581583328665715],[6.239289069840679,50.577995656279505],[6.236166760275898,50.57246555307599],[6.235637705995337,50.56660713538994],[6.227321956219304,50.56212300171045],[6.225378529342814,50.55563358769502],[6.210541882909586,50.55474701871324],[6.20717944154983,50.546905714478164],[6.200661558207694,50.54328210185789],[6.197781402578114,50.53999526588807],[6.196898988665225,50.53611091413934],[6.178097836461667,50.541520001363985],[6.178519578384563,50.55393888727496],[6.174068283762911,50.55635392504576],[6.189344713005573,50.56602798955714]],[[6.192162175292795,50.520909615045426],[6.187187761529014,50.526114248695194],[6.192063430351229,50.53079749914836],[6.196187426330991,50.53110656845457],[6.198872509083774,50.527272615613334],[6.206575314602356,50.522988539870184],[6.192162175292795,50.520909615045426]],[[6.234865593888617,50.62612037609426],[6.194205195909033,50.63389731920005],[6.181797893007385,50.62379668095916],[6.175723983862591,50.62739296274214],[6.183332276644377,50.632149331187996],[6.16668594752236,50.64362128805026],[6.183531633277438,50.646970329702874],[6.185326931349221,50.64106767138645],[6.189249028585062,50.639668744578316],[6.219078375670487,50.64015940613029],[6.221779306052899,50.640427922512025],[6.224598069640738,50.64176835516186],[6.23107929888503,50.648974939630456],[6.244454131375547,50.64072265691618],[6.265633278656852,50.642002549765905],[6.273651733543545,50.62993195782215],[6.268395051945618,50.62556141482218],[6.261053378802086,50.628442153452184],[6.234865593888617,50.62612037609426]],[[6.183546378535051,50.652058090305886],[6.166034270303488,50.661862725476574],[6.191194174541381,50.66413945781762],[6.196155050651751,50.658887289250636],[6.194913900938773,50.65672788604414],[6.186254154082924,50.65149768675684],[6.184062896613804,50.64866732047783],[6.181194196538796,50.64957701939564],[6.183546378535051,50.652058090305886]]]}},{"type":"Feature","properties":{"reg_code":["03000"],"prov_code":["90000"],"prov_name_fr":["Province de Namur"],"reg_name_fr":["Région wallonne"],"CODE_INS_NOM_PROVINCE":"9 - NAMUR"},"geometry":{"type":"Polygon","coordinates":[[[4.966628884769063,49.79819184369623],[4.969185961725698,49.81064198413162],[4.981089851630209,49.816451993813736],[4.977067967327512,49.8199575858202],[4.988014295238549,49.82042063615066],[4.990502796693177,49.82437800267569],[4.984432726011204,49.82631532665074],[4.985464074580912,49.838217312298035],[4.981201191006652,49.84287505333686],[4.988519524361664,49.84737062266483],[4.989472998533483,49.85285091420945],[5.012806151065094,49.858133211601306],[5.024004693351104,49.86439189958022],[5.026322337324886,49.870800334038634],[5.020661903318564,49.872969839458825],[5.037375668362191,49.873001451383026],[5.058447335346846,49.883195014974284],[5.062574754577065,49.88658075484377],[5.048202774531491,49.88818457180565],[5.042317616824023,49.89229447600202],[5.046894372684648,49.897804734930894],[5.057446697247211,49.89726354627862],[5.064649374715276,49.901300701187665],[5.072092292155753,49.912480463819534],[5.098476891360356,49.920492275456915],[5.119592552229331,49.922641104724896],[5.111857778346933,49.92398206215369],[5.098309426505162,49.937116627253516],[5.102601333271679,49.94672524096155],[5.101536568555757,49.96079051027242],[5.091777623558268,49.96136201641873],[5.072068776041928,49.97083031342859],[5.066020735270513,49.97559130432951],[5.066919298548756,49.98185180630542],[5.060357097982951,49.984418800448196],[5.052813118750264,49.98337037765274],[5.049563542277668,49.98674501497671],[5.04297597548718,49.9812182732091],[5.026147422921716,49.97785479670531],[5.008532963665878,49.98143759114493],[5.007157468329928,49.98940023758884],[5.012135748779325,49.992179811335234],[5.012631897434444,49.99742446815047],[4.995452155829844,50.00628955588951],[4.996923656725921,50.014627212912664],[4.973346608026949,50.02861904945074],[4.979244383569118,50.03075003639797],[4.988182638031176,50.027214055239234],[4.993782028837133,50.03158855815047],[4.997430588779967,50.045122580295015],[5.010974534582223,50.03797684690708],[5.027339387700934,50.045319304555875],[5.028292003618875,50.04961018921553],[5.041464537455632,50.053122914708894],[5.042074412749946,50.06153965401845],[5.046441497093259,50.06101509309704],[5.053647123477328,50.066999823041265],[5.05455782606076,50.073196794046915],[5.049227267922021,50.07773381888448],[5.058419618147048,50.075169106870185],[5.060719980145087,50.07778755408993],[5.052764140427954,50.08343108966804],[5.052778448883955,50.08807872536718],[5.065705115207306,50.122784153452166],[5.068406633577274,50.12239965594917],[5.065835658124421,50.11879620893723],[5.068150288115063,50.11735841203558],[5.060322060680734,50.107635330355485],[5.071554444274395,50.09359355351039],[5.12324389434743,50.099720825823596],[5.132357072780556,50.09883173589032],[5.136478517856249,50.09439338329328],[5.152715112826047,50.09440983202899],[5.158382610601787,50.10034313077502],[5.188625948416779,50.10080199071496],[5.188266982451096,50.097771236000014],[5.199115158945485,50.0996275846477],[5.200175549467828,50.096786545652606],[5.226873610881571,50.10217869599287],[5.226660799853555,50.10766629226817],[5.236436118325193,50.110174932382236],[5.263368985530638,50.10858438582657],[5.269255259624893,50.11174583055463],[5.268329036749154,50.11957947143126],[5.253722745755204,50.12820110501154],[5.247300802625499,50.12716362141568],[5.242309169421354,50.134194750488184],[5.266241003897141,50.14275052204882],[5.27206190177642,50.14100222975763],[5.273790580813404,50.145511699001005],[5.283289079045215,50.14804928975344],[5.282612181056073,50.15475454671555],[5.274818239265771,50.156388795574976],[5.279484624469743,50.159295956477884],[5.267483748222215,50.16288663914434],[5.266687831445227,50.168276929978646],[5.242764755844227,50.18726616366935],[5.24880238869044,50.19092421216376],[5.247210879528749,50.19582236502095],[5.24257991868186,50.19305214588843],[5.234741515227819,50.19584006349767],[5.245970237273199,50.20397796296072],[5.231850670000563,50.214730855659184],[5.206950259344839,50.217110284382045],[5.228585438870792,50.22779274073338],[5.234623403097468,50.22161006688801],[5.2587074619156,50.22739694536499],[5.260299696459524,50.23245661535804],[5.252010740726617,50.238200813929765],[5.273278421834389,50.242402212044944],[5.283159473775004,50.24903491164751],[5.293947358210666,50.239005484300264],[5.313377000414518,50.24549724632222],[5.331179865358725,50.25439158550452],[5.358778816795917,50.275034831486394],[5.377005934511435,50.27826729385661],[5.394713961686019,50.287155791821995],[5.395361645638295,50.2940695697088],[5.388673236963602,50.29829774018473],[5.393751869595135,50.30002804015494],[5.390157907787435,50.3066017478913],[5.393106486796163,50.30979657835682],[5.388457026933342,50.316073180443325],[5.381598075994058,50.31376945832237],[5.361835189908014,50.31765425219018],[5.347410682699741,50.30495345912282],[5.341395907771314,50.31151264244858],[5.34237833016632,50.315830415253124],[5.350637307188121,50.3210306286136],[5.376937730910837,50.32680572956928],[5.395791306876428,50.33552549305793],[5.396113177317207,50.340964576245966],[5.386025738093303,50.34404841540224],[5.38107134699917,50.351876004371704],[5.399401455325618,50.36306284852064],[5.402941689584463,50.3675977704494],[5.39744912334983,50.369371025253095],[5.401423845355153,50.373584719500414],[5.382559780170062,50.38680714772854],[5.368364541082251,50.37986056529555],[5.351394318810572,50.38836554977728],[5.297159862079088,50.36497798438571],[5.281053150821369,50.37823683195571],[5.279149297407438,50.389286717160545],[5.28726403383239,50.394596529081184],[5.275778377072118,50.394316142265716],[5.274478012533077,50.398987702757836],[5.26001937829274,50.40342133709926],[5.253896122096039,50.400292887004554],[5.233679259488492,50.40419835991344],[5.221180077765577,50.41727554680712],[5.237195684509816,50.42702631624076],[5.232609252423329,50.43117656400901],[5.236452350828547,50.43833817251021],[5.230116010259475,50.44404733327225],[5.224833840652789,50.44237962701841],[5.210238084146002,50.459004088625065],[5.198932861241644,50.47881926291465],[5.179521303589874,50.475966631919285],[5.172380348742005,50.46933507206704],[5.163952343385453,50.467605847859346],[5.149314249648805,50.48246067577283],[5.159558078552798,50.487186338045916],[5.157430818185943,50.48940413082378],[5.14670365517258,50.4865494572145],[5.133544691587302,50.48935382271883],[5.133345430024317,50.4984749285172],[5.128977672249301,50.50266207049625],[5.140519895814329,50.50550841681499],[5.144597589406801,50.50871615117049],[5.14218195137838,50.51213864773178],[5.115301652572221,50.50371457686733],[5.101437433058629,50.508414821630964],[5.100710381532513,50.51267560555331],[5.094774230590843,50.51516534971221],[5.097431162947291,50.516527559895074],[5.093777888433712,50.518780601428155],[5.097266098075994,50.519728246427306],[5.090064401624457,50.52576200391282],[5.094950468087553,50.526546050863246],[5.09235987752808,50.52930338015225],[5.034244780264542,50.531779215011774],[5.038295368646222,50.537139052777825],[5.054241779815177,50.54112078102532],[5.046912635819403,50.55075579439665],[5.051039162252605,50.555323883353886],[5.044235843114417,50.557659009792616],[5.048567660716752,50.56110764925288],[5.033549846796857,50.57058391043672],[5.030171383788299,50.579551151726754],[5.034414146205565,50.58231273106389],[5.027588678655756,50.584519082016556],[5.028671843643219,50.58870210090517],[4.99906426710372,50.60012445470574],[5.003030098654759,50.60683020307961],[5.000328050286192,50.61041408565757],[4.979299883966089,50.61859428868701],[4.987942134043623,50.62584157025947],[4.981895650919702,50.63451639055451],[4.989799806397707,50.63674132033291],[4.983335633160742,50.64229560497176],[4.978893603434204,50.639560150652116],[4.965215610043058,50.64844417666073],[4.941114785939138,50.64339827906724],[4.941023818643727,50.636049658734926],[4.929291990642983,50.62740057554615],[4.914718477352361,50.62586503323863],[4.900140212197106,50.62880804163125],[4.897647091650138,50.62798131202444],[4.90065187408057,50.6224992920599],[4.787788007708648,50.60201256461137],[4.787759308953396,50.59842100568986],[4.797011138303122,50.59200721075533],[4.791637190303798,50.58965821767979],[4.786952043217819,50.59813975807663],[4.779669372636531,50.60103176208285],[4.76607181901028,50.59969984454515],[4.744530778252821,50.58884489199436],[4.746807526662407,50.59255624060768],[4.740974188709067,50.597978973348724],[4.745373135842847,50.60101614283379],[4.734510428857119,50.610647680854434],[4.714151172009394,50.60842800689467],[4.707416643624246,50.603994451763725],[4.71202585230623,50.59623706952139],[4.704758503460738,50.59422575557424],[4.678707461166614,50.60302943926987],[4.672618990024527,50.60812673895464],[4.660407158515394,50.604499340349356],[4.656224220098411,50.59984046168396],[4.656827163215215,50.58588034213824],[4.662048369444403,50.57647438199393],[4.673117828294755,50.57089852339725],[4.668564297537145,50.56576666208719],[4.645016906038682,50.56025635522963],[4.641761932536594,50.564992243933915],[4.637608407861695,50.56249400451109],[4.633641017558598,50.566228473382374],[4.621343632805145,50.56156067635902],[4.617876407156362,50.569571679225],[4.602093593429662,50.56930520015957],[4.589128227318536,50.56244567323424],[4.575148986345662,50.56083712970054],[4.580470578273617,50.530173088954946],[4.573699700826451,50.52107660340018],[4.565522697066121,50.51965100847263],[4.563106993539925,50.50841889445158],[4.557322081996875,50.50552816639061],[4.563543083319074,50.49765701391507],[4.55961677618359,50.49316661980055],[4.561980617666879,50.489302186175195],[4.578925462025379,50.49955033589868],[4.585440377527076,50.4957344087412],[4.593654783845959,50.499373086954456],[4.586323463110669,50.49372699031226],[4.590523216538546,50.49086408769317],[4.587465984962076,50.48981989741531],[4.600708301825065,50.47667450076213],[4.594814512988018,50.4674988192819],[4.587133488868887,50.46302081470781],[4.588873844544475,50.45758802390424],[4.573158832508131,50.453497953833306],[4.584065437823492,50.44576672294169],[4.581655042659378,50.442158266693305],[4.57264769201724,50.4421414571392],[4.584017606874462,50.4384384990535],[4.582697060637114,50.43197435317477],[4.59012728298446,50.43299554569434],[4.605540179480261,50.426342577885606],[4.613434464436336,50.43032626380924],[4.617267837560323,50.42517265786293],[4.610627211498597,50.4218894794883],[4.603657779553163,50.40283939393008],[4.584364027137887,50.397594174343965],[4.605474406474258,50.38682473987291],[4.606226098399355,50.383460519534154],[4.594200102294391,50.380500116682526],[4.594279359285405,50.3727066199061],[4.584243477018636,50.36447213505347],[4.581897213627347,50.358122667637545],[4.588742863034362,50.34978217779405],[4.582364487969842,50.3416427498239],[4.593633363647756,50.33969252828756],[4.593778513456969,50.32675071865375],[4.590361254018038,50.32194537519088],[4.565582081638167,50.32289097381777],[4.520208808152304,50.314981495987354],[4.517900770906987,50.31844998543714],[4.505199512148002,50.32167129625291],[4.507905113699897,50.32510475422988],[4.504460161068079,50.329023667001394],[4.484154138139647,50.32893069825434],[4.472863523796504,50.3263811619063],[4.470759129757801,50.31880115862501],[4.463528891995938,50.31368649347627],[4.466088371619071,50.31023948410396],[4.456956699051439,50.30482123582808],[4.431497563413891,50.31031044370494],[4.419520866629493,50.305547107426825],[4.402063740122312,50.31115143931238],[4.400905323824385,50.30769525183207],[4.40467050855516,50.30466584589757],[4.394156120198009,50.293507089293286],[4.386860731757904,50.29002705957648],[4.3693686894402,50.29186336816512],[4.368845106062112,50.285097910046886],[4.362099416601144,50.283201328909556],[4.358052063931766,50.274979847830444],[4.351113542035584,50.278355086378454],[4.34144027672262,50.2787418266609],[4.337478692250373,50.274868347273774],[4.338823256074769,50.27675848839128],[4.328237665095812,50.277567077121134],[4.327127701171942,50.27262908269084],[4.316162621522665,50.27185525896681],[4.318268196194406,50.26805597588216],[4.309544962437484,50.270008522428725],[4.304210571301938,50.263653615004586],[4.296048373834903,50.26304152026553],[4.28675268129482,50.25583308691758],[4.289758669485155,50.25364493941388],[4.285751278370137,50.24971507376985],[4.292990689101355,50.25013643641627],[4.298700483264113,50.243549989340735],[4.30830682632201,50.24172508108062],[4.309185937687611,50.238018823168616],[4.34499915410303,50.22737196746444],[4.367025910988279,50.243377247463656],[4.387026251271256,50.239337131958834],[4.388944126029315,50.23428070188399],[4.400963875022287,50.23305490841339],[4.39984637158284,50.225877340985],[4.395712721860998,50.22560800113872],[4.394274897219364,50.221267374210676],[4.398964154717859,50.21397263630043],[4.391214528206892,50.21115699226413],[4.393915272153675,50.2048273900329],[4.389357583264164,50.200486780009655],[4.397500700654704,50.18598170540757],[4.392216289987816,50.18071384787606],[4.361582201926328,50.17095433308179],[4.365440306232131,50.15686819303234],[4.375947972603827,50.156894624904986],[4.376153037371133,50.152781530714265],[4.384911251373611,50.15041308787471],[4.388635116710137,50.14361515129205],[4.384331760027831,50.13599956022257],[4.400676192014475,50.12284536032755],[4.385614369004139,50.10900710439112],[4.394200981729035,50.081134677613235],[4.39011535694638,50.06715111310922],[4.395724849105699,50.05819014490061],[4.39009592523781,50.049876453623156],[4.393521800536161,50.0475861155035],[4.400939881574221,50.051007069410275],[4.401430437390596,50.0480094990634],[4.406343221581862,50.04961055487462],[4.409571255851462,50.045248893718046],[4.406504495032995,50.03688960590733],[4.415384999124715,50.01059514345432],[4.413524725821387,49.99859167541121],[4.445855188172184,49.95390885935824],[4.432708399142436,49.94177550514228],[4.445486731479383,49.937181110068785],[4.481159962709484,49.948145486662106],[4.511219835922352,49.94650939319086],[4.518703694414917,49.95166146043746],[4.523497703609668,49.950437084101154],[4.541388409451641,49.96947305684051],[4.564554871628353,49.970378718939166],[4.581895086368719,49.983557680154334],[4.632336305401892,49.98700483394525],[4.666715903188928,49.996723692829754],[4.693267509495576,49.99544515866077],[4.685028988324914,50.00654811785157],[4.688926032674242,50.011293837075996],[4.684612302610094,50.027105733917665],[4.696581066072147,50.04252424602088],[4.695193835124797,50.04726504913756],[4.700012154909918,50.05294887845321],[4.695986622126976,50.05907589176809],[4.686006687257095,50.05742977508182],[4.679539251858409,50.06681157543792],[4.688333181668268,50.072584859993],[4.692291759511611,50.084253251404505],[4.702104988237218,50.09555615999601],[4.751723691806944,50.111913044128826],[4.753307150829967,50.11649929352303],[4.748047039055775,50.12233633877629],[4.7561505731396,50.121631921928774],[4.762165052275254,50.13640552459306],[4.806515308428221,50.152678051478375],[4.824187045511239,50.169298513051125],[4.823810499515924,50.16225176421736],[4.832421573381474,50.153226611110824],[4.878470788489478,50.15305358650764],[4.881381883089144,50.14123116868021],[4.897022784823429,50.137932276993084],[4.886833779232937,50.13080164212589],[4.878404793148682,50.13179529918576],[4.878485596826013,50.1272283177959],[4.871500795057896,50.12520277593064],[4.86705117844093,50.11879680521223],[4.873382671371258,50.10706910129942],[4.867340195797381,50.0974476356483],[4.875863129775693,50.09440369068786],[4.872319202126886,50.08775950920903],[4.860589893455006,50.0928504293405],[4.861752210174969,50.097124034667345],[4.858483954096982,50.100129638045345],[4.849790783024086,50.10120630613768],[4.837412679816533,50.093205050461485],[4.846837825579367,50.084395021103816],[4.840587484024516,50.08299561850613],[4.842887252133876,50.07773204679138],[4.838132693973005,50.067240399904186],[4.819887239040911,50.066042316576315],[4.819050471429616,50.06123417766345],[4.829570553268717,50.05687724984089],[4.826724439761787,50.05110704425935],[4.83204065916184,50.04679456740207],[4.840516512556181,50.04657022325956],[4.841883678578712,50.03949560598202],[4.820031094148347,50.02611221870243],[4.822440913767716,50.021710123072076],[4.817430311401155,50.01542676055233],[4.821080172249021,50.01050538737532],[4.816032136127978,50.000432058286464],[4.819045683475485,49.99547187166691],[4.807382136562986,49.9840726080545],[4.793329313344028,49.98179836875435],[4.795440019454484,49.97715610900776],[4.790750974319868,49.97027874129682],[4.791083608045569,49.958317547674454],[4.82982046505606,49.94919864612695],[4.847071759315293,49.94906432594177],[4.859092397309305,49.93149111572468],[4.881822086701547,49.92189169935253],[4.880846118214702,49.91627619704009],[4.890164633324774,49.90889079264604],[4.877484845126796,49.90444956857518],[4.876316477759644,49.90131654050107],[4.885261015972515,49.90196108520576],[4.887399614564699,49.89859567155469],[4.877703697352616,49.894610516262425],[4.869223782848905,49.88354012281132],[4.871178887506225,49.878728906646],[4.866440115884135,49.87847736406034],[4.861660348287451,49.87159406518079],[4.862649895604639,49.8669339797937],[4.856708109161593,49.86473867711854],[4.847474124732341,49.86800302726712],[4.85749299255472,49.84191916001634],[4.86716782548323,49.842056667802495],[4.86917547032942,49.82284957731967],[4.876187676195308,49.819717719576694],[4.86528145222221,49.8133016111151],[4.863086866580989,49.801898373717236],[4.851613723364159,49.7934470507991],[4.864222185549099,49.78882832746566],[4.875839868377829,49.793529325697676],[4.905601405280598,49.785507096280185],[4.920116162400705,49.788694878628796],[4.930941840746921,49.78702296869315],[4.938900409066775,49.793096153045965],[4.943633311282912,49.7915653687103],[4.947380454493334,49.79900409761928],[4.956982929988416,49.801502422394165],[4.966628884769063,49.79819184369623]]]}}]}