{"type":"FeatureCollection","features":[{"type":"Feature","properties":{"Reg_Code":["04000"],"Reg_Name":["Région de Bruxelles-Capitale"]},"geometry":{"type":"Polygon","coordinates":[[[4.296390151632188,50.809908348342596],[4.306451556752587,50.81244218101666],[4.302052212130434,50.80422186035753],[4.304945472563699,50.79875097388449],[4.316245724666378,50.79638125287203],[4.321868569385042,50.783170353958624],[4.331210845058882,50.77550833807103],[4.381045484565944,50.76933265042114],[4.382929199979794,50.76368006388515],[4.482271138825826,50.79298922964832],[4.44717608523835,50.808297284655914],[4.457555817468536,50.81632380186697],[4.454655660897075,50.81842191917895],[4.476732105880374,50.820404804524884],[4.465741781064856,50.83553519515821],[4.467075889951846,50.84462607916164],[4.461163432409583,50.851902479956166],[4.42975749642485,50.86121290843635],[4.420867844662822,50.867712486540874],[4.427336443726653,50.87747401671817],[4.43706488057285,50.87878084513276],[4.427036777964418,50.8908893127534],[4.432789070938332,50.894728492382036],[4.412475410947181,50.90702220270732],[4.414233872480898,50.91153016331858],[4.403466331112794,50.9139013049867],[4.387761708106536,50.90994427697348],[4.378224114060667,50.89728199872375],[4.342298274424158,50.90241884613129],[4.2937612430847,50.88904439980051],[4.298899989906348,50.87992675284479],[4.279215041727093,50.86485276765694],[4.280336810668125,50.85990639977894],[4.289840910940886,50.855866037559835],[4.283380229156005,50.853910337857734],[4.28824746520355,50.848267455075465],[4.283504413132421,50.84697948804813],[4.282939493515289,50.837849214288596],[4.256363362036815,50.834934575544466],[4.25431008693787,50.82628686708062],[4.244381040966217,50.81954126339441],[4.256322244935387,50.81741189904211],[4.259935651426697,50.81111726385131],[4.272943222822295,50.81215879669915],[4.28367543173978,50.80706024376238],[4.296390151632188,50.809908348342596]]]}},{"type":"Feature","properties":{"Reg_Code":["03000"],"Reg_Name":["Région wallonne"]},"geometry":{"type":"MultiPolygon","coordinates":[[[[3.178249509285909,50.75613581914232],[3.187452914996459,50.74076232291348],[3.199986566644605,50.73459144776759],[3.191495124807266,50.7246894438517],[3.209778369010833,50.71746146697593],[3.205101522664486,50.71210577084412],[3.245237156104414,50.71304588603636],[3.250809508303567,50.705360433422904],[3.261048634724964,50.70134087791482],[3.25855616047163,50.69608521826672],[3.261510519816718,50.69141110856057],[3.252843617994963,50.689756690969745],[3.265276122738826,50.677082807152196],[3.241214099871343,50.66884472712501],[3.240065966884811,50.65862573702357],[3.248902913389717,50.64976488615411],[3.244116741159308,50.64068204637922],[3.259193622056396,50.6297268342679],[3.255277203131415,50.62274251325584],[3.269992667598457,50.61197653099336],[3.274571035249163,50.596885412233604],[3.279564696896271,50.59591654269297],[3.275726027887032,50.5816291716107],[3.282040257435651,50.57516807509812],[3.27777805332565,50.56429271242663],[3.285200333930591,50.561670142790206],[3.275948026495959,50.55853905260805],[3.282556826121885,50.55205805510047],[3.278251644280245,50.551689673261954],[3.278807782880941,50.538966213227404],[3.288517220937504,50.52581441442893],[3.320597573788096,50.51873169420053],[3.329558187072234,50.50802985403105],[3.3619282992332,50.503904613712294],[3.377054823768647,50.49109313917876],[3.392024265087971,50.49851610321163],[3.396017628080533,50.49611393057352],[3.428922433373781,50.50471247327363],[3.438395948773169,50.51068510445404],[3.446929926529667,50.50598871627176],[3.453802745284356,50.51920879797119],[3.474422735616268,50.53367226091307],[3.519803000289719,50.523683950699464],[3.516187264344393,50.512865301708125],[3.496301437377054,50.49887207350994],[3.500727944705133,50.48670278728225],[3.522959065754617,50.49538881089738],[3.569306407325549,50.500909901969884],[3.58563042583142,50.49053506116836],[3.607537634950132,50.497229864616465],[3.632504349856039,50.479951725437914],[3.643408583928873,50.463339635572375],[3.654380252333309,50.463111855499605],[3.662759465369581,50.456088200188745],[3.659451901183663,50.445106368118225],[3.669764148570336,50.437240462337755],[3.674071324096247,50.3895335091887],[3.65709895812395,50.36928311192491],[3.667227564051392,50.36092302152111],[3.665408497015804,50.34702240699122],[3.677403664498643,50.34027859472046],[3.674720213742356,50.3328900746709],[3.693825191571069,50.321829460016545],[3.689004422916081,50.31859808112414],[3.709933221292601,50.3031651833781],[3.720139182170208,50.30502443297043],[3.710186711131908,50.31396926898942],[3.712124716217539,50.319606078179056],[3.720324228677454,50.315977879043324],[3.721151507630984,50.311316454497934],[3.731869561285041,50.3115204206458],[3.727367023043637,50.31531617532092],[3.732438370913866,50.32156750117382],[3.729903169372329,50.330408321740364],[3.733929696072875,50.32996072734114],[3.73601377537456,50.335680358639905],[3.73400433770459,50.34237943974467],[3.74720726464529,50.35099193615229],[3.763186576829948,50.34802112839875],[3.767045253729816,50.35309205556152],[3.798939970224847,50.35092023439989],[3.807215751331295,50.35526102074977],[3.814001523893835,50.353181619529074],[3.811626031074588,50.34522967736363],[3.814759328936868,50.34489575143328],[3.821906734556353,50.34573787503595],[3.824336937233448,50.35344910945129],[3.845711596322284,50.35315734530584],[3.856185507720868,50.34892220854813],[3.857171754379143,50.34223554867598],[3.875690419308741,50.33761629947712],[3.887188135531403,50.340956923817444],[3.89049153891709,50.32982109254607],[3.885678665638825,50.32698450195245],[3.899978703145956,50.327077438165844],[3.968406540748702,50.35005749698078],[3.967412366861166,50.34063663836265],[3.973198079981336,50.34789688473852],[3.987740102544794,50.34285273127854],[3.993643926150612,50.34874777179028],[4.017851891146694,50.35238081273728],[4.01828087936913,50.35726382449844],[4.02421600987381,50.359179730117184],[4.036062726220342,50.34366377678619],[4.054004644484737,50.339325889640044],[4.0550571705247,50.33253018804458],[4.065436425110454,50.330311092620356],[4.078274887727908,50.320673593262505],[4.078912943739511,50.30966345380077],[4.097180419681839,50.313511692522475],[4.109706494246194,50.30184620071618],[4.117064696965008,50.30408848806143],[4.12567528629008,50.28838693243804],[4.121859419195997,50.27763843563689],[4.124376213111861,50.27363370729119],[4.136310228347514,50.27460219954604],[4.133664743287332,50.2670510752961],[4.138796482952362,50.263285898147444],[4.1355049552564,50.257398666612396],[4.167667906575945,50.25949293498238],[4.168720933478658,50.266537218845045],[4.163423148506388,50.27186709845037],[4.149277349424328,50.27556863100639],[4.155348170421286,50.28020464905263],[4.154268179329439,50.28454849135469],[4.161069925948207,50.28493927506835],[4.162618116048547,50.288951888989196],[4.176361382570723,50.284442733428044],[4.177423964714382,50.27503798882268],[4.208192666122384,50.272988913548836],[4.221245454191293,50.25861224734395],[4.220041749928677,50.251640771790605],[4.1815490129326,50.232279911226755],[4.172841248136653,50.217113494700406],[4.151983446747161,50.21199090925655],[4.160692424162409,50.19780401296153],[4.148051862756222,50.17337290688742],[4.155780838498573,50.1720766477422],[4.155294549535897,50.162971077345134],[4.13772465657334,50.15193369404632],[4.135572318194076,50.14257974677851],[4.127757413866866,50.13598398498393],[4.154777292563595,50.127900117119786],[4.157204674691802,50.13529537312844],[4.198906512310637,50.13447215684818],[4.197574867183241,50.12879768741582],[4.203848347888443,50.116051396172914],[4.19676062095116,50.10642242554168],[4.207446727063487,50.10521179106723],[4.201561432891289,50.099913811101246],[4.22523438635481,50.08558008358906],[4.230907065070389,50.073476301953654],[4.224174205938144,50.06365309638842],[4.198772827778355,50.05657398797433],[4.194279559887155,50.0494196238763],[4.173948879658092,50.04546691917894],[4.162280127785874,50.04934669998574],[4.136125524987944,50.0208980017309],[4.136261024120251,50.01335152742489],[4.144943490067254,50.00846985184659],[4.142362099871992,50.005684259978345],[4.161862766405179,50.00055395857343],[4.1631416699525,49.995003680421185],[4.141503926320383,49.977966788609876],[4.152417121992335,49.97455221516807],[4.172783326318541,49.977180815581605],[4.178189057635785,49.97197091730338],[4.196731786419281,49.96769567867569],[4.197800670568077,49.954792290764374],[4.268065253152823,49.96528957212106],[4.289788232122845,49.96360713912667],[4.309519256217874,49.96952733540604],[4.335737803298635,49.96336228494021],[4.351007311902269,49.952245246873545],[4.381009643465196,49.95437842032266],[4.390503481521129,49.94781516642229],[4.416289776430733,49.94757450968138],[4.445487632347675,49.93718166143568],[4.48116103692837,49.948146023181295],[4.511220941090005,49.94650992848985],[4.523498845226825,49.9504376174323],[4.54139369229751,49.96947813905588],[4.564556182657627,49.97037920750757],[4.581896434284647,49.98355818913358],[4.63233761267183,49.98700543953228],[4.666717178078666,49.996724359252056],[4.693268757178625,49.99544587521764],[4.68503025553884,50.00654881016756],[4.688927302866754,50.011294530240086],[4.684613589735898,50.02710640190791],[4.700013448499994,50.05294954175904],[4.695987915763657,50.05907654612827],[4.686007976443286,50.05743041787808],[4.679540534136473,50.06681220483966],[4.688334464266589,50.07258549648933],[4.702106253473628,50.09555679729151],[4.751724941568711,50.11191370611032],[4.753308395111128,50.11649995191004],[4.74804827073602,50.12233698557441],[4.756151810579627,50.12163257761179],[4.762166270506802,50.136406169490705],[4.806516524732804,50.152678680634516],[4.824188218616039,50.169299094545465],[4.823811693681077,50.162252370804815],[4.832422785950725,50.153227250799965],[4.878471957267004,50.15305426007836],[4.881383095122369,50.14123185461266],[4.89702400267397,50.13793296992786],[4.886835023287389,50.13080233145087],[4.878406037087837,50.1317959868034],[4.878486851825471,50.12722900446349],[4.867052452639523,50.11879749281736],[4.8733839832274,50.10706980125377],[4.867341526972853,50.09744834547505],[4.875864470863282,50.094404408464044],[4.872320551445773,50.08776023508079],[4.860591225827889,50.09285114193633],[4.858485275356314,50.10013034082404],[4.84979209855735,50.101207005443385],[4.837413996372858,50.0932057525999],[4.846839154744281,50.08439573656763],[4.840588811632482,50.0829963313507],[4.842888586660738,50.077732764075634],[4.838134040733506,50.067241119888735],[4.819888567283256,50.06604303145208],[4.81905180373296,50.061234894330426],[4.829571902418844,50.05687797171241],[4.826725791516211,50.051107767951116],[4.840517889585287,50.04657095297826],[4.84188506521459,50.03949633744175],[4.820032441003812,50.026112952379634],[4.81818774175618,49.99372454994464],[4.807383392319174,49.984073439331084],[4.793330510269786,49.98179920400121],[4.795069953336118,49.975419367630394],[4.790266168593798,49.96759248951234],[4.791797961469949,49.95792931989676],[4.847073531996917,49.94906531463167],[4.8590943822608,49.931491928881215],[4.8818242054802,49.92189239822267],[4.880848245368695,49.916276921962776],[4.890166782615951,49.9088915217887],[4.877486991805694,49.90445035011237],[4.876318661831938,49.90131731919382],[4.885263205540678,49.901961841226864],[4.887401865055857,49.898596409272656],[4.877705974212868,49.89461127832524],[4.869226074956598,49.88354094161438],[4.871181147859698,49.87872976690893],[4.861662478344011,49.87159501880511],[4.862651977178446,49.86693497047406],[4.847492789346894,49.86800575581025],[4.857494711560054,49.841920293515415],[4.867169525439679,49.842057818324804],[4.86917708960447,49.82285064904723],[4.876189318611535,49.81971874165108],[4.865283131245617,49.8133025900255],[4.863088595924355,49.80189929219729],[4.851615500515902,49.79344794227163],[4.864223988751857,49.78882918086638],[4.875841656609035,49.79353017179229],[4.905603393433578,49.785507796204854],[4.930944012721806,49.787023558473535],[4.953989494900993,49.80087646425925],[4.962319271504981,49.79778852585465],[4.968693691316054,49.80159494730554],[4.994114774927223,49.80086557730055],[5.008548636152317,49.782036287361485],[5.061614726974482,49.76736095919844],[5.063076723876344,49.762349901566836],[5.071835963777692,49.760989391209094],[5.087714036668999,49.76614535216452],[5.09435190516454,49.76349768213689],[5.118769625309546,49.73868983479655],[5.125147954636557,49.726769842651315],[5.125969918303098,49.712424558302466],[5.140497130192551,49.71345820701611],[5.144223491535356,49.70963900221417],[5.15397813195769,49.71886322729946],[5.165954908119003,49.71179651334647],[5.16437719259331,49.693388287293914],[5.196845443055174,49.692162508019244],[5.205693947630998,49.696348232371754],[5.218006995433983,49.68768550721933],[5.23135573488291,49.69165251489242],[5.242984719441787,49.6893147774361],[5.242651148847353,49.68546030034267],[5.256171393574468,49.69421385997349],[5.270197680501136,49.69577178341358],[5.33238360629618,49.65411474538015],[5.318196378911414,49.64635774272463],[5.304991107481559,49.63021541625812],[5.312092154587504,49.611652176239694],[5.340481137736607,49.616684537581634],[5.344374000152739,49.62860158562731],[5.351913801300698,49.63091537998722],[5.363748989184561,49.623227350226095],[5.375478855942413,49.62344559734914],[5.398073947855051,49.61583306212701],[5.402255815171352,49.60989650148962],[5.41118510224622,49.60827311750239],[5.41823811557706,49.599803964986506],[5.428341340446802,49.59615604716012],[5.437648739066698,49.56992185339754],[5.457027241597986,49.56698107001121],[5.447716671623205,49.55450785760745],[5.441389896283914,49.552276970556235],[5.465340223340946,49.53892754685605],[5.467048734227509,49.52588863173467],[5.447702714751848,49.517760370159415],[5.465927988413274,49.50884703798737],[5.46507663848461,49.498816262237234],[5.471507315172422,49.49699501860102],[5.48501585299783,49.507225719231336],[5.499726146554752,49.50658131860735],[5.541170873260026,49.5152736880371],[5.545591037752329,49.5237360991937],[5.556325802559972,49.52919006761948],[5.591288534921264,49.522937935954715],[5.611051292506606,49.50596539593299],[5.621489002180045,49.5196394471875],[5.615643118163982,49.52720999879162],[5.619935033294372,49.532683116233024],[5.633701937394818,49.54437222942413],[5.643472056959728,49.54688865054687],[5.642869957287031,49.549783659239786],[5.660351377340531,49.55325735134955],[5.705062494823565,49.53892816278393],[5.731986709863378,49.5448575296947],[5.738594527868556,49.53870317798288],[5.74765387810905,49.539472982926824],[5.757715744259622,49.54297258194461],[5.758323462705328,49.56140272253201],[5.774455124904831,49.56319999154491],[5.792114474907629,49.551815874248504],[5.818473722160278,49.54644260122582],[5.826051381892681,49.55220720462144],[5.841955399185361,49.55309626870895],[5.846511707771255,49.56209898348037],[5.872748558165729,49.57434131547954],[5.871895815519808,49.57960554922758],[5.865970894211261,49.580533332427976],[5.872724208259376,49.58316639881745],[5.871351366088854,49.588020915999195],[5.850087527435755,49.586931234114985],[5.847760637751859,49.5959414312753],[5.876516226571176,49.60847721596255],[5.875644938777433,49.61883544195833],[5.886400375377434,49.627325904207666],[5.883860774776436,49.63297931360768],[5.907714495574339,49.63907259891194],[5.902222674664019,49.6517925043134],[5.90505832133146,49.660722707441145],[5.910674364480623,49.662473799018564],[5.901469216003824,49.66449279851058],[5.902040001089988,49.6681615845675],[5.886297671409167,49.66795739768066],[5.862474931196176,49.67966550237275],[5.866690796770063,49.69435111550742],[5.886985325660495,49.70931071056625],[5.864785298798531,49.72694985951233],[5.844585920173012,49.721335693041944],[5.826286221077476,49.72356279542694],[5.827438504297787,49.73913000682208],[5.832644836701629,49.74147015637012],[5.830647561067202,49.749507239141124],[5.817909714816775,49.75400908397961],[5.815936362956377,49.76221468360727],[5.791952133245141,49.78690397966024],[5.790401802816022,49.79572519226276],[5.755135787134651,49.79145267406546],[5.751177916338422,49.81484612235592],[5.74339420997095,49.820978698053636],[5.748191102199263,49.82466302690924],[5.739312556199253,49.8336649034901],[5.740870789614005,49.8387956113356],[5.750431023212314,49.83992609793729],[5.749057236458954,49.84701714656399],[5.758258996261162,49.846611660310955],[5.755131127926542,49.8515887997307],[5.745916553169361,49.85253289275317],[5.760646533996396,49.8567152106938],[5.754618870196755,49.8623350800037],[5.755263351429471,49.87274357180338],[5.765001330698187,49.86933394329755],[5.769616786174465,49.872583059880746],[5.774516848902249,49.86733167341595],[5.783854073563247,49.87315609533477],[5.777845216133235,49.87582578687247],[5.783532997599377,49.87743222708175],[5.778012873684498,49.883825059067455],[5.735680152683567,49.896902767052694],[5.739981611125357,49.90420535956597],[5.764001498553914,49.91574712948176],[5.760652144525521,49.917418006078854],[5.764338751145788,49.931480368231256],[5.770934607973943,49.93167039016119],[5.770442723818878,49.936673530306955],[5.775158912216284,49.937710621447316],[5.77037028941636,49.949584566725946],[5.777228628169939,49.95773423825606],[5.775025196462795,49.960794533681664],[5.796029840901284,49.965716824485355],[5.806398941273485,49.96229394512361],[5.813148033818472,49.972581294494795],[5.835767142574208,49.97888104513076],[5.839372053320648,49.98959829186061],[5.821593894235322,49.999038587838164],[5.818987051551916,50.012821046345366],[5.843754331283469,50.01945029299435],[5.859905901016124,50.028890275560975],[5.856113468860193,50.036265386453834],[5.869894384069067,50.04591982469221],[5.854246980904417,50.05888195040335],[5.860633852622328,50.06925359176077],[5.887440181544346,50.07964467623949],[5.886456245241307,50.09086001284878],[5.894581859371913,50.10105349856859],[5.895322657857618,50.11219747129049],[5.914240375509066,50.12189292842288],[5.961332774357031,50.13135874346936],[5.958740031231046,50.15051401283512],[5.967230973957558,50.155349583288505],[5.961883446265917,50.16146299181318],[5.963744747521083,50.17260383085425],[5.999787051351526,50.175850897615234],[6.024784124534035,50.18279597469432],[6.032284463710409,50.16318972428539],[6.064250342168859,50.15340377907975],[6.078783742027191,50.15653520120461],[6.079243587300398,50.17078499702501],[6.102454521932591,50.17054940206581],[6.119769572277951,50.16336920245356],[6.114965591279306,50.15556519234447],[6.125019170933554,50.14976711308178],[6.117758345811922,50.14727889164696],[6.112312262864986,50.13601655515909],[6.137793531842108,50.1298493594629],[6.138713247852177,50.1348910385948],[6.154769481001385,50.14185478905874],[6.153067155455693,50.15013181700551],[6.14042118831445,50.14796192835345],[6.131971761128257,50.153498812324685],[6.147591356319309,50.16059960963549],[6.139561437852594,50.16824125024149],[6.147498489364886,50.17021805895621],[6.145839663146269,50.17676316477795],[6.160401905611512,50.17156047829392],[6.163347143741222,50.178417412717934],[6.18426079455159,50.178217545195096],[6.192508694621921,50.18206656978267],[6.185925100086466,50.184064705618304],[6.190279686518425,50.18759849991978],[6.184031036615486,50.19289166403261],[6.188891043323295,50.205283770479284],[6.177980751315904,50.21649498753788],[6.166496230634825,50.219595234973625],[6.167976795651478,50.2244286227808],[6.176471977753198,50.22565819226375],[6.175605805351574,50.235317642303954],[6.195346815765417,50.23694939622864],[6.205360729562123,50.25116751962919],[6.215784689465012,50.25693324547889],[6.218485375956046,50.25448864301357],[6.259051212285905,50.26778976377167],[6.278747229860846,50.26666114866917],[6.291112126763366,50.27653768370637],[6.285158827876937,50.284151049347834],[6.288524826676946,50.2905438069127],[6.285888279458672,50.293877109120416],[6.295588190219437,50.29983327644229],[6.296115507803812,50.308973679663566],[6.308623236594749,50.3108626112932],[6.306407290101991,50.32015724944033],[6.332994334543804,50.32347786219018],[6.334664873625893,50.31636114588417],[6.341388680879936,50.31856140608051],[6.34059623993725,50.31564539823082],[6.36272671516454,50.30555085648843],[6.358311885535254,50.3108966882469],[6.361494138513486,50.31480373157366],[6.370217088809797,50.312511828205515],[6.382465870702884,50.32216443478563],[6.405534361321102,50.32333546594668],[6.40810011007111,50.335414215236504],[6.400236671377622,50.338689116954576],[6.398699832302074,50.34556942721108],[6.367032072750561,50.35876817273986],[6.369769890845403,50.36105511263895],[6.360876035218546,50.371281619848546],[6.343364923559477,50.3795715382877],[6.365620593667113,50.40132389321747],[6.369960807625004,50.40889840463587],[6.36697464311075,50.4200164509321],[6.37746584047348,50.43880716702886],[6.371816857504568,50.45550726080012],[6.362948122755524,50.45378728243955],[6.340406515224608,50.46226260800057],[6.343817882739157,50.468676203974155],[6.337514005799274,50.47459105554056],[6.341633875736585,50.483475665408925],[6.349696087545402,50.488604559638375],[6.334772115978048,50.48919190925025],[6.308971623812491,50.50147784569013],[6.297741213441921,50.49751360115791],[6.269664278645514,50.504544412559774],[6.261557827969214,50.4987392876377],[6.251704410533165,50.503530368277424],[6.224497191159633,50.49506029885183],[6.20912661095092,50.514656676594925],[6.212515363308971,50.51556244716604],[6.206645627648852,50.52380360497969],[6.197057655840559,50.530405660241954],[6.198948024917821,50.54051725637901],[6.207698739319677,50.546720981906525],[6.21032360102195,50.55393619085242],[6.224393643642267,50.554799474804376],[6.226693433500646,50.55650865116912],[6.22756325926476,50.56168466862482],[6.234909681416357,50.5650837574698],[6.236221793740697,50.56650740554796],[6.236254905678059,50.57139366345384],[6.239129283833932,50.57658258640844],[6.240327649117968,50.58628866608433],[6.248852902176492,50.59717815856903],[6.249392195095676,50.59875962305085],[6.248866595169646,50.60483668446642],[6.269017447256227,50.6192812760164],[6.274114936636094,50.62987078205359],[6.266787087959269,50.64159134481642],[6.265225185464132,50.6427982688796],[6.261583958087176,50.643338772321265],[6.244644852566414,50.641011692683136],[6.233750535645211,50.648721406223345],[6.231592742796368,50.6492661954662],[6.228148218549361,50.64883452925308],[6.225744296126885,50.64684233271873],[6.224192218959665,50.641937999708915],[6.221054649827644,50.64062111175057],[6.197130980821863,50.6409549082781],[6.188204535546565,50.640053268534245],[6.183634843193444,50.645986392900056],[6.196491202314924,50.65819729738007],[6.195035126598593,50.66268470086742],[6.193064325588337,50.66407967707677],[6.188022728402285,50.6646677834421],[6.165834330547469,50.662139280655396],[6.162940728834316,50.67070433712158],[6.1441103431263,50.68158196333349],[6.143653903143741,50.68876765298825],[6.123618192829321,50.70680203488028],[6.124825766599932,50.71111866117496],[6.118237051627947,50.72018928055998],[6.110725288904291,50.723507746575045],[6.07314336159525,50.72101068431477],[6.044460640119417,50.72843392242916],[6.039695094860664,50.718282221278216],[6.033214407378833,50.731008338840645],[6.039665298985223,50.737469096505855],[6.04043931923282,50.74550348146433],[6.017348255635382,50.755011278687284],[5.983187153827364,50.75281900160283],[5.960758112920115,50.76230413450935],[5.915077717850658,50.750366280129754],[5.91254396725578,50.7556741767094],[5.901626841766099,50.75139942136036],[5.892109146762539,50.75521940282591],[5.895328647689548,50.74555037561342],[5.906769813635965,50.74219709477101],[5.911109407063368,50.735145260554475],[5.883366509539968,50.709864989398056],[5.861287967510765,50.71743649005258],[5.812949760480974,50.71532533453117],[5.811115046338826,50.72343476708525],[5.800150586231998,50.732116331640235],[5.801630544035195,50.73657339352409],[5.77062046517313,50.751348971631145],[5.748897281294704,50.74524284031577],[5.744774527631745,50.749113898368705],[5.747003525853166,50.75224090476187],[5.737287864332185,50.75547100900144],[5.726025382826792,50.75168573481827],[5.722277049703095,50.74571039317338],[5.683234675527503,50.75481525852101],[5.682829406162165,50.761258808188096],[5.698743248143312,50.779619672404266],[5.691675819341289,50.81212166160336],[5.68787682416986,50.81192372926525],[5.687191136460784,50.80410144562037],[5.673007217840615,50.80775733000291],[5.653193744267195,50.80544454730909],[5.646242243170883,50.793032466636866],[5.636221760879351,50.786194833563805],[5.626814343428928,50.7823011816629],[5.615724099985823,50.784231973006314],[5.60635869294683,50.77905838835945],[5.609085791271482,50.776765507190945],[5.592072506504346,50.77373204216924],[5.591552499143215,50.770020455451174],[5.580307238913688,50.77315347540729],[5.568973738693566,50.76423979314168],[5.552955427651415,50.76401305583523],[5.547680651358909,50.75881748484936],[5.522345997313045,50.75846595919277],[5.519278404660244,50.7472243154858],[5.524360265421524,50.74235153773894],[5.478620728447809,50.723540417340075],[5.474091761389537,50.72592235591566],[5.475663714051403,50.73354973407907],[5.462078171603116,50.73881255508839],[5.463155846883061,50.73058154972616],[5.454507849385062,50.727152732561024],[5.45323354323063,50.72090232673497],[5.435669388035391,50.7221837575893],[5.432365041717622,50.71812390097954],[5.428093761851655,50.723179967401975],[5.420565201230888,50.71902357747318],[5.402287791748869,50.728054422020115],[5.401750951956394,50.735213945682176],[5.394466594600112,50.734844334169715],[5.389589334414687,50.74796944824683],[5.376051525631079,50.74204045510599],[5.368027035501521,50.74696710723646],[5.350293962050895,50.746393592464386],[5.333693299802026,50.73548533062844],[5.313851062132402,50.729248779617684],[5.308088129505766,50.7238091293246],[5.310315305018971,50.71916756048796],[5.304040787813661,50.71643501286564],[5.296513854275427,50.723577458025744],[5.276306505388671,50.72903479671338],[5.255715317253972,50.715120403718004],[5.241133374599471,50.716724983512925],[5.237325963450066,50.72658688476703],[5.2299493722884,50.718025742325885],[5.20560691818738,50.720904647945446],[5.194134914911524,50.71650256671569],[5.169840763656094,50.722496154639444],[5.167516567950181,50.71555445217289],[5.175259519827711,50.714528359274816],[5.180554675341601,50.704672342304285],[5.162217439873273,50.69565404044096],[5.15632604838796,50.6983233847458],[5.148641515905516,50.69543389187928],[5.127282040491053,50.706101768683965],[5.108520813129243,50.70973461388717],[5.095855049451185,50.703346138065],[5.075377751097985,50.70905871505984],[5.070375104268187,50.70647295306026],[5.064326934816621,50.71462778878251],[5.044009481856217,50.72347069190053],[5.046996021533224,50.731275146575896],[5.042448870533897,50.734074712677206],[5.048130714959155,50.73904895920971],[5.019659878208484,50.75110893669408],[5.003350699856976,50.76597129492973],[4.98172544239045,50.76978111116111],[4.978701467042573,50.76597465323434],[4.968532739369858,50.767242617640896],[4.969367399260891,50.762308742179904],[4.953409142052214,50.754788844264446],[4.953819322571943,50.75095039748572],[4.928687575268828,50.747188029670994],[4.925491717827196,50.74269278409667],[4.919687154595544,50.74778061759311],[4.906518361246632,50.74946730685572],[4.911212258132836,50.755753129570415],[4.902584319089748,50.76052426347426],[4.908562282198514,50.76915721293115],[4.899575953832193,50.76911552561297],[4.899747605833677,50.77260659649391],[4.885533197904616,50.76276580877453],[4.876794935509379,50.76682260442009],[4.860958741683516,50.7638640493892],[4.846589637978941,50.767999343933404],[4.835161273503992,50.762755259518315],[4.831226807343561,50.770517192896904],[4.838546013938882,50.77289189530346],[4.835231763079869,50.776198851708585],[4.812203431106069,50.77621196178134],[4.80739676969664,50.7869119683048],[4.790653247780383,50.798734613869485],[4.751155901032471,50.806990942163615],[4.735998615006501,50.800258900435914],[4.725504845262846,50.80203516293517],[4.727757087288654,50.79775385626625],[4.715485003891028,50.78891772045161],[4.710498609068351,50.79619517175004],[4.703139336233014,50.790325071722],[4.691969734582377,50.78912355580565],[4.685747394501159,50.794867498520794],[4.666986206365093,50.792035931134016],[4.642152270104249,50.79905620339954],[4.646414713464647,50.78664816161007],[4.636281222282615,50.77234345432473],[4.647238182049438,50.75911086332274],[4.655425581060943,50.757464324984255],[4.643554963135447,50.74595016104818],[4.634903421889155,50.743208585559],[4.605080240575258,50.7410309113224],[4.598302884191489,50.74562591349931],[4.601120735499527,50.75552763907491],[4.596251841066355,50.76370088088359],[4.580534565250469,50.75802856831649],[4.575791107152293,50.747292710900446],[4.56657379517887,50.748656670140186],[4.56074836457408,50.74423493011503],[4.556352677905513,50.748785569725904],[4.534286920152226,50.73915299088908],[4.529831239122109,50.74087963995339],[4.524964936378295,50.73842158882356],[4.531742158159987,50.73127653838423],[4.524075900702785,50.72733093020388],[4.500385670163442,50.73834169488026],[4.50132065318969,50.743964331269495],[4.495086185336102,50.740396876158286],[4.491804007178887,50.74323631527952],[4.501552967491143,50.75379720439876],[4.49418893322007,50.757101266871956],[4.485492370503551,50.75181598235915],[4.482540899547054,50.754503425315185],[4.471103878182236,50.75171329790486],[4.463602861882953,50.755119500683364],[4.424134072865193,50.73587132445457],[4.395733330221168,50.73511758083749],[4.371859066909307,50.72949998155343],[4.372729641561936,50.71621804062485],[4.351500921926693,50.71510106540197],[4.338069234547792,50.734107777666615],[4.333585523638659,50.733605734139985],[4.323826318470756,50.72890665689847],[4.325338059063453,50.72324781002783],[4.333088492743268,50.72639195845201],[4.330825243985489,50.720735194457816],[4.335335621551994,50.716626662057614],[4.328423681472962,50.71840845985757],[4.326468685388311,50.71540493558886],[4.322988730245449,50.7199052112134],[4.313723888768901,50.720266637503656],[4.307960833374681,50.70021609582617],[4.290354572984164,50.69407593591219],[4.261583587770465,50.70043289717301],[4.246335065843736,50.68952421196128],[4.208970070592292,50.70809060658603],[4.182047893778857,50.70666320025535],[4.172090197933126,50.72161984632315],[4.156352091783709,50.72907466352229],[4.152347190111659,50.72869367240266],[4.152849223437251,50.7247638004457],[4.142389305293917,50.72896942798626],[4.134556222958439,50.716589905953434],[4.117045218149115,50.71270322659622],[4.109179646750754,50.716232747556695],[4.09734264656867,50.707876955602046],[4.099011427710437,50.705503250373674],[4.085453808310985,50.71194457624172],[4.071997285728438,50.711798896882826],[4.058740008330616,50.69449142368123],[4.051692494244143,50.7018453189281],[4.031840131720002,50.69392168479658],[4.017115157533126,50.693916839369194],[4.009950183179034,50.699422496701814],[3.987719576405295,50.68749442840981],[3.931329378014035,50.68946086171408],[3.927819915719173,50.695434834105924],[3.912092798842973,50.691186306920486],[3.913475059360125,50.69874951271169],[3.901734154707102,50.710793010170164],[3.889945235027219,50.710340648891204],[3.896928993870271,50.7292115598721],[3.892564045263002,50.735071675775906],[3.899090371088674,50.737147683300094],[3.887448533497888,50.74849146632898],[3.85836917528397,50.751346612726756],[3.857201591447303,50.747460666699446],[3.83831144224775,50.741434923362235],[3.818837101552093,50.74468240493036],[3.815468947302895,50.750716905624344],[3.775674752422827,50.74789188426849],[3.753224972338461,50.771625494905564],[3.75901449909122,50.779980105377405],[3.738191409760457,50.77030805379983],[3.715898771733224,50.767956593646886],[3.711592838643881,50.77055365880642],[3.714642625852254,50.77309412165704],[3.709037797737192,50.774698739273774],[3.71330959035329,50.78035415112002],[3.710184700587707,50.781860885109914],[3.696898984955198,50.77340000537051],[3.678223797042747,50.77228971005518],[3.677373068221843,50.767018366774906],[3.669494705049255,50.763960773387815],[3.672549130355867,50.75842160906289],[3.65986362267684,50.75436485109431],[3.658957287836592,50.746868906881346],[3.642639931029065,50.73822998592258],[3.64038490852931,50.72230444580312],[3.631027332103908,50.721103421770465],[3.610269412613194,50.732265960808654],[3.568291173561702,50.72813302448679],[3.559327912928052,50.73409806670427],[3.541691502290043,50.7327924528818],[3.547785812164489,50.747195027687674],[3.538569461141913,50.75740178190172],[3.54068048802585,50.76286586294484],[3.537627478823246,50.76454670790508],[3.492192757389022,50.75773536885815],[3.466666825536928,50.76474622366148],[3.459302451433298,50.76214526414431],[3.454854260819493,50.771140172542914],[3.454633605376251,50.75882686452126],[3.438568497218403,50.75861530361332],[3.436907498153718,50.754326813939436],[3.431893443562861,50.75672142024462],[3.434982429895237,50.75012805837607],[3.426606399733471,50.74675322013615],[3.40554436697309,50.7463454629614],[3.39958144266693,50.73246174705856],[3.393254293266269,50.731883394291934],[3.395240355679642,50.72993209160943],[3.368889914850794,50.725769402893135],[3.360598532126185,50.70957436656812],[3.323940774487649,50.722399748658965],[3.329056717588526,50.73083239075486],[3.30558080066061,50.754689815979766],[3.293046690729252,50.74954185562002],[3.26502037050688,50.750607325667815],[3.219602632574162,50.765711890103546],[3.192067666496051,50.756181725466774],[3.178249509285909,50.75613581914232]],[[6.178908098608435,50.654313368865985],[6.166034335232047,50.661863275732344],[6.191194679385944,50.66414007040788],[6.196155624713791,50.65888789893305],[6.184063373334999,50.648667907457565],[6.178908098608435,50.654313368865985]],[[6.235300078015674,50.62631933967677],[6.194205798075987,50.633897860103104],[6.181798439343385,50.62379717423404],[6.17572446683696,50.62739346332586],[6.183332807559725,50.63214986156795],[6.166686170323375,50.64362182507228],[6.183532112662912,50.64697091304592],[6.183361479116246,50.64588439508984],[6.184233113147249,50.64268585929198],[6.185327445335029,50.64106823619554],[6.189249582000502,50.63966930425627],[6.219079136174954,50.64015997226541],[6.221780080797989,50.64042849020147],[6.224598860130407,50.64176892617889],[6.231080147184983,50.648975536657794],[6.244455071811815,50.64072325865491],[6.265634433240133,50.642003228778684],[6.27365283058249,50.62993258194145],[6.268396086717548,50.625562006733055],[6.261054396771,50.62844275019764],[6.235300078015674,50.62631933967677]],[[6.186834937955521,50.564339440547755],[6.203097870483875,50.569289702169556],[6.206249361790665,50.57621306484886],[6.219663067734936,50.58167648424297],[6.225339697553832,50.59046490813358],[6.240574955827114,50.58706210273674],[6.239369989211064,50.58433057470444],[6.238879357796283,50.58158361179583],[6.239289872479385,50.57799591583532],[6.236167566593066,50.57246576582874],[6.234257046371286,50.56503540983644],[6.227322743959447,50.562123142874874],[6.225379313012773,50.555633700158396],[6.21054262072085,50.554747078945546],[6.207180229884483,50.54690569838729],[6.200662367336455,50.54328204141592],[6.197782241458651,50.53999517352025],[6.196899874133548,50.5361107877677],[6.17809861500383,50.54151991637606],[6.178520100376095,50.55393898974813],[6.174660858882292,50.557925283547895],[6.186834937955521,50.564339440547755]],[[6.198132716705691,50.521300924280105],[6.192163263161837,50.52090936771107],[6.187293910157137,50.52713827730607],[6.19618837358939,50.53110640064381],[6.198873497575462,50.52727242194753],[6.20657631925922,50.52298832969304],[6.198132716705691,50.521300924280105]],[[6.246190697112853,50.59736952282554],[6.246744762652837,50.59822694288769],[6.248486034723248,50.59788928416008],[6.24821098543632,50.596823256330545],[6.246190697112853,50.59736952282554]]],[[[2.863097540734701,50.708283392251175],[2.869721813357769,50.70325833138131],[2.885342429254772,50.706482863624885],[2.901160674499584,50.69285109201753],[2.909899448258506,50.693656921114716],[2.90859887458807,50.70184551366193],[2.923669277813722,50.70349157752989],[2.929903287924236,50.7108024885233],[2.931906569971931,50.72852009269887],[2.944212891047122,50.731260581949364],[2.937987540323068,50.744584895520916],[2.95661866768018,50.75354770385788],[2.97298041634646,50.750490466721175],[3.029518801761106,50.78011492606976],[3.012889340549258,50.78405349388714],[3.01466535012065,50.789969587085736],[3.008575352446643,50.79524666530123],[3.01502998238491,50.802673847133455],[3.000017525667189,50.810792993191804],[2.937182638911525,50.79360813195456],[2.957879736131739,50.78210338192627],[2.959000401402636,50.77354213875889],[2.919753365847504,50.764104738316604],[2.922003665081155,50.75703376078607],[2.893714105386374,50.75266530672715],[2.878219298118628,50.76153772135184],[2.877597090343597,50.75428097433787],[2.870513010892918,50.754567030177434],[2.869630057956223,50.76003067206574],[2.842119320616181,50.75144037630406],[2.85268436568654,50.74042204099553],[2.842211785429537,50.735702978737606],[2.869606495348295,50.71295414525462],[2.863097540734701,50.708283392251175]]]]}},{"type":"Feature","properties":{"Reg_Code":["02000"],"Reg_Name":["Région flamande"]},"geometry":{"type":"MultiPolygon","coordinates":[[[[2.863097540734701,50.708283392251175],[2.869606495348295,50.71295414525462],[2.842211785429537,50.735702978737606],[2.85268436568654,50.74042204099553],[2.842119320616181,50.75144037630406],[2.869630057956223,50.76003067206574],[2.870513010892918,50.754567030177434],[2.877597090343597,50.75428097433787],[2.878219298118628,50.76153772135184],[2.893714105386374,50.75266530672715],[2.922003665081155,50.75703376078607],[2.919753365847504,50.764104738316604],[2.959000401402636,50.77354213875889],[2.957879736131739,50.78210338192627],[2.937182638911525,50.79360813195456],[3.000017525667189,50.810792993191804],[3.01502998238491,50.802673847133455],[3.008575352446643,50.79524666530123],[3.01466535012065,50.789969587085736],[3.012889340549258,50.78405349388714],[3.029518801761106,50.78011492606976],[3.018905933520857,50.7736769255416],[3.023907953416669,50.771096641704816],[3.035669201392635,50.77033315183204],[3.040970551071595,50.77606836765606],[3.05694271016578,50.78072432678617],[3.088997081718772,50.773371452738246],[3.106321832113741,50.78328361715375],[3.111486274916881,50.79426838510623],[3.125003979289084,50.78662744077033],[3.15086668421299,50.7899180200221],[3.151094180435032,50.78391027377063],[3.171419800107148,50.75849683300782],[3.181187051374618,50.75531921652493],[3.219602632574162,50.765711890103546],[3.26502037050688,50.750607325667815],[3.293046690729252,50.74954185562002],[3.30558080066061,50.754689815979766],[3.329056717588526,50.73083239075486],[3.323940774487649,50.722399748658965],[3.360598532126185,50.70957436656812],[3.368889914850794,50.725769402893135],[3.395240355679642,50.72993209160943],[3.393254293266269,50.731883394291934],[3.39958144266693,50.73246174705856],[3.40554436697309,50.7463454629614],[3.426606399733471,50.74675322013615],[3.434982429895237,50.75012805837607],[3.431893443562861,50.75672142024462],[3.436907498153718,50.754326813939436],[3.438568497218403,50.75861530361332],[3.454633605376251,50.75882686452126],[3.454854260819493,50.771140172542914],[3.459302451433298,50.76214526414431],[3.466666825536928,50.76474622366148],[3.492192757389022,50.75773536885815],[3.537627478823246,50.76454670790508],[3.54068048802585,50.76286586294484],[3.538569461141913,50.75740178190172],[3.547785812164489,50.747195027687674],[3.541691502290043,50.7327924528818],[3.559327912928052,50.73409806670427],[3.568291173561702,50.72813302448679],[3.610269412613194,50.732265960808654],[3.631027332103908,50.721103421770465],[3.64038490852931,50.72230444580312],[3.642639931029065,50.73822998592258],[3.658957287836592,50.746868906881346],[3.65986362267684,50.75436485109431],[3.672549130355867,50.75842160906289],[3.669494705049255,50.763960773387815],[3.677373068221843,50.767018366774906],[3.678223797042747,50.77228971005518],[3.696898984955198,50.77340000537051],[3.710184700587707,50.781860885109914],[3.71330959035329,50.78035415112002],[3.709037797737192,50.774698739273774],[3.714642625852254,50.77309412165704],[3.711592838643881,50.77055365880642],[3.715898771733224,50.767956593646886],[3.738191409760457,50.77030805379983],[3.75901449909122,50.779980105377405],[3.753224972338461,50.771625494905564],[3.775674752422827,50.74789188426849],[3.815468947302895,50.750716905624344],[3.818837101552093,50.74468240493036],[3.83831144224775,50.741434923362235],[3.857201591447303,50.747460666699446],[3.85836917528397,50.751346612726756],[3.866318407255698,50.747920608014006],[3.884033117825046,50.75041635286094],[3.899090371088674,50.737147683300094],[3.892564045263002,50.735071675775906],[3.896928993870271,50.7292115598721],[3.889945235027219,50.710340648891204],[3.901734154707102,50.710793010170164],[3.913475059360125,50.69874951271169],[3.912092798842973,50.691186306920486],[3.927819915719173,50.695434834105924],[3.931329378014035,50.68946086171408],[3.987719576405295,50.68749442840981],[4.009950183179034,50.699422496701814],[4.017115157533126,50.693916839369194],[4.031840131720002,50.69392168479658],[4.051692494244143,50.7018453189281],[4.058740008330616,50.69449142368123],[4.071997285728438,50.711798896882826],[4.085453808310985,50.71194457624172],[4.099011427710437,50.705503250373674],[4.09734264656867,50.707876955602046],[4.109179646750754,50.716232747556695],[4.117045218149115,50.71270322659622],[4.134556222958439,50.716589905953434],[4.142389305293917,50.72896942798626],[4.152849223437251,50.7247638004457],[4.152347190111659,50.72869367240266],[4.156352091783709,50.72907466352229],[4.172090197933126,50.72161984632315],[4.182047893778857,50.70666320025535],[4.208970070592292,50.70809060658603],[4.242426884553095,50.690199975144914],[4.247641471150962,50.68993011932136],[4.261583587770465,50.70043289717301],[4.290354572984164,50.69407593591219],[4.311149631507632,50.70291453135879],[4.308198452970882,50.706397482737536],[4.313723888768901,50.720266637503656],[4.322988730245449,50.7199052112134],[4.326468685388311,50.71540493558886],[4.328423681472962,50.71840845985757],[4.335335621551994,50.716626662057614],[4.330825243985489,50.720735194457816],[4.333088492743268,50.72639195845201],[4.325338059063453,50.72324781002783],[4.323826318470756,50.72890665689847],[4.333585523638659,50.733605734139985],[4.338069234547792,50.734107777666615],[4.351500921926693,50.71510106540197],[4.372729641561936,50.71621804062485],[4.371859066909307,50.72949998155343],[4.395733330221168,50.73511758083749],[4.424134072865193,50.73587132445457],[4.463602861882953,50.755119500683364],[4.471103878182236,50.75171329790486],[4.482540899547054,50.754503425315185],[4.485492370503551,50.75181598235915],[4.49418893322007,50.757101266871956],[4.501552967491143,50.75379720439876],[4.491804007178887,50.74323631527952],[4.495086185336102,50.740396876158286],[4.50132065318969,50.743964331269495],[4.500385670163442,50.73834169488026],[4.524075900702785,50.72733093020388],[4.531742158159987,50.73127653838423],[4.524964936378295,50.73842158882356],[4.529831239122109,50.74087963995339],[4.534286920152226,50.73915299088908],[4.556352677905513,50.748785569725904],[4.56074836457408,50.74423493011503],[4.56657379517887,50.748656670140186],[4.575791107152293,50.747292710900446],[4.580534565250469,50.75802856831649],[4.596251841066355,50.76370088088359],[4.601120735499527,50.75552763907491],[4.598302884191489,50.74562591349931],[4.605080240575258,50.7410309113224],[4.634903421889155,50.743208585559],[4.643554963135447,50.74595016104818],[4.655425581060943,50.757464324984255],[4.647238182049438,50.75911086332274],[4.636281222282615,50.77234345432473],[4.646414713464647,50.78664816161007],[4.642152270104249,50.79905620339954],[4.666986206365093,50.792035931134016],[4.685747394501159,50.794867498520794],[4.691969734582377,50.78912355580565],[4.703139336233014,50.790325071722],[4.710498609068351,50.79619517175004],[4.715485003891028,50.78891772045161],[4.727757087288654,50.79775385626625],[4.723811720523454,50.80109447635879],[4.735998615006501,50.800258900435914],[4.747646391778668,50.80708822067143],[4.790653247780383,50.798734613869485],[4.80739676969664,50.7869119683048],[4.812203431106069,50.77621196178134],[4.835231763079869,50.776198851708585],[4.838546013938882,50.77289189530346],[4.831226807343561,50.770517192896904],[4.835161273503992,50.762755259518315],[4.846589637978941,50.767999343933404],[4.860958741683516,50.7638640493892],[4.876794935509379,50.76682260442009],[4.885533197904616,50.76276580877453],[4.899747605833677,50.77260659649391],[4.899575953832193,50.76911552561297],[4.908562282198514,50.76915721293115],[4.902584319089748,50.76052426347426],[4.911212258132836,50.755753129570415],[4.906518361246632,50.74946730685572],[4.919687154595544,50.74778061759311],[4.925491717827196,50.74269278409667],[4.928687575268828,50.747188029670994],[4.953819322571943,50.75095039748572],[4.953409142052214,50.754788844264446],[4.969367399260891,50.762308742179904],[4.968532739369858,50.767242617640896],[4.978701467042573,50.76597465323434],[4.98172544239045,50.76978111116111],[5.003350699856976,50.76597129492973],[5.019659878208484,50.75110893669408],[5.048130714959155,50.73904895920971],[5.042448870533897,50.734074712677206],[5.046996021533224,50.731275146575896],[5.044009481856217,50.72347069190053],[5.064326934816621,50.71462778878251],[5.070375104268187,50.70647295306026],[5.075377751097985,50.70905871505984],[5.095855049451185,50.703346138065],[5.103414457590532,50.70916002110725],[5.119335070207879,50.708278817420826],[5.148641515905516,50.69543389187928],[5.15632604838796,50.6983233847458],[5.165312093016262,50.69572899361408],[5.180554675341601,50.704672342304285],[5.175259519827711,50.714528359274816],[5.167516567950181,50.71555445217289],[5.169840763656094,50.722496154639444],[5.194134914911524,50.71650256671569],[5.20560691818738,50.720904647945446],[5.2299493722884,50.718025742325885],[5.237325963450066,50.72658688476703],[5.241133374599471,50.716724983512925],[5.255715317253972,50.715120403718004],[5.276306505388671,50.72903479671338],[5.296513854275427,50.723577458025744],[5.304040787813661,50.71643501286564],[5.310315305018971,50.71916756048796],[5.308088129505766,50.7238091293246],[5.313851062132402,50.729248779617684],[5.333693299802026,50.73548533062844],[5.350293962050895,50.746393592464386],[5.368027035501521,50.74696710723646],[5.376051525631079,50.74204045510599],[5.389589334414687,50.74796944824683],[5.394466594600112,50.734844334169715],[5.401750951956394,50.735213945682176],[5.402287791748869,50.728054422020115],[5.420565201230888,50.71902357747318],[5.428093761851655,50.723179967401975],[5.432365041717622,50.71812390097954],[5.435669388035391,50.7221837575893],[5.45323354323063,50.72090232673497],[5.454507849385062,50.727152732561024],[5.463155846883061,50.73058154972616],[5.462078171603116,50.73881255508839],[5.475663714051403,50.73354973407907],[5.474091761389537,50.72592235591566],[5.478620728447809,50.723540417340075],[5.524360265421524,50.74235153773894],[5.519278404660244,50.7472243154858],[5.522345997313045,50.75846595919277],[5.547680651358909,50.75881748484936],[5.552955427651415,50.76401305583523],[5.568973738693566,50.76423979314168],[5.580307238913688,50.77315347540729],[5.591552499143215,50.770020455451174],[5.592072506504346,50.77373204216924],[5.609085791271482,50.776765507190945],[5.60635869294683,50.77905838835945],[5.615724099985823,50.784231973006314],[5.626814343428928,50.7823011816629],[5.646242243170883,50.793032466636866],[5.653193744267195,50.80544454730909],[5.673007217840615,50.80775733000291],[5.687191136460784,50.80410144562037],[5.68787682416986,50.81192372926525],[5.65398733935875,50.82008216913553],[5.656174109185554,50.8242896455086],[5.64884467080121,50.82690566426637],[5.651378815289651,50.831991611257045],[5.638862689493338,50.84767411404816],[5.642704886791868,50.85008017065521],[5.641661227117698,50.864161038488646],[5.649468492760852,50.86834287426109],[5.644155800931868,50.87134922112786],[5.66962713494803,50.88182137922988],[5.679346695765721,50.88048826380862],[5.682512121974565,50.88852373562244],[5.695740896855642,50.89774473171795],[5.699462128003537,50.91076226963144],[5.722774012398662,50.90916258866633],[5.728087644081766,50.92558855919957],[5.740876007849842,50.935224533539795],[5.746584712710479,50.947303108363755],[5.758104418711086,50.950750081973396],[5.758229087912494,50.955248783388576],[5.750519211255111,50.9607404597086],[5.72809677537324,50.95496402027196],[5.72012367672133,50.96242082506305],[5.767624300473678,50.999737649699945],[5.766963012444626,51.01236689702793],[5.776404906046786,51.02330676963765],[5.760813574537639,51.030005242537435],[5.758381277863826,51.03501341704762],[5.77075422085249,51.04918955690364],[5.774650673716476,51.062975215976316],[5.793174085633054,51.058525074100686],[5.800880954336573,51.062110533813716],[5.796614832011234,51.07182287433203],[5.804859923587631,51.0796318952117],[5.796017265494079,51.09147654279038],[5.808252047370885,51.0963372320495],[5.825550703703395,51.09268397041162],[5.832414340914465,51.09736275504694],[5.833775581297657,51.10278475340522],[5.82887970437977,51.10703814319988],[5.810856742232573,51.10886499699777],[5.807662702799039,51.113044213843935],[5.80984402724351,51.11842001392753],[5.824892291322465,51.12934273165091],[5.840108204434481,51.13084048638695],[5.845147699323761,51.140029852594054],[5.855774450107653,51.144623729966405],[5.83634575052966,51.15368290310266],[5.838602068479346,51.15708456199876],[5.82436068725694,51.167830009361616],[5.813851471543191,51.15874329900321],[5.804929785514186,51.16287293096931],[5.777639857559292,51.15130150928103],[5.774804482363552,51.154706490401445],[5.77939594681863,51.163313945959636],[5.770182005289726,51.16422141641563],[5.769558786208303,51.16908072294317],[5.779366047702235,51.172161554569996],[5.772945910757325,51.17336691294203],[5.776721527274096,51.17848247123526],[5.749084381068175,51.188675699848346],[5.709334362844956,51.1804176130848],[5.689408288282566,51.18541648039984],[5.658041707216242,51.18474262105323],[5.649735568664592,51.19361448560068],[5.654078640719075,51.19423837917131],[5.652728176548874,51.1976573330244],[5.560447109328216,51.22232465302945],[5.555210631764759,51.24439761694561],[5.556442624890575,51.26638976136903],[5.528681468304607,51.28175305240044],[5.515771216019655,51.295190591110696],[5.483014308903656,51.30016105914014],[5.464835528486568,51.28456280509092],[5.441781297649987,51.28210240298265],[5.417410487578945,51.26228207724686],[5.346140145292082,51.27576329562291],[5.342647294670738,51.26592929775478],[5.336477026751472,51.2630667055368],[5.296151168491218,51.26147986518382],[5.26311772801896,51.26679992055214],[5.237910879004658,51.261352415555486],[5.225970781747343,51.268258902583035],[5.242189616538778,51.30521650398264],[5.20025484442223,51.322659380679454],[5.1626291122783,51.310324412008036],[5.134352439463535,51.31549968870335],[5.131686377143813,51.34704219551555],[5.071179822282082,51.393485821467294],[5.104609033665313,51.431345072966835],[5.078968381995372,51.47151544704602],[5.045691077038805,51.471114918960254],[5.037884513393953,51.47934862850616],[5.04020584328696,51.48653302992779],[5.035554586101644,51.487391824347895],[5.010833855977036,51.47230657575358],[5.007290554536452,51.464632864952065],[5.010978386149247,51.456008776209764],[5.004581182332676,51.443922331901696],[4.963228276575268,51.4222849486355],[4.92095166554414,51.3936839921724],[4.913849625293314,51.39507526839706],[4.923269450156583,51.3985494551043],[4.910162628521276,51.40226035928704],[4.90980360185962,51.40743367598495],[4.903864822483643,51.41240916784041],[4.89992009015327,51.41061832141254],[4.90286773959571,51.413552700302716],[4.899992253701725,51.41466897792239],[4.896964554224406,51.411780889948844],[4.886072097028082,51.41661999267659],[4.874903732620647,51.41504338510192],[4.866613425903576,51.41165759195549],[4.867360664161209,51.40911265846774],[4.839330526654567,51.41461580348497],[4.789325645740423,51.40898799548179],[4.771656579827017,51.41471988124344],[4.767656694264795,51.430838997243974],[4.786705294930613,51.43253210816447],[4.836488409345428,51.417254345606615],[4.841468404937479,51.42244678963248],[4.830156519884875,51.42125079741514],[4.823383800604751,51.4485887177741],[4.835254761473951,51.4587405644428],[4.837820200420089,51.45608776991749],[4.844006864380079,51.45907244902366],[4.836109810252077,51.461244598917496],[4.841875393037402,51.4807355261728],[4.821143940939248,51.483067444820804],[4.816649976884213,51.49404474920375],[4.798619776715173,51.499699240460636],[4.786119795502265,51.49880868624377],[4.780892935017298,51.50407236939126],[4.752699279170346,51.499820613221104],[4.7464654461278,51.48944282336454],[4.729810001449322,51.484236731452086],[4.716909098864816,51.4688595893641],[4.703249537387211,51.46696765167258],[4.693094577863283,51.451729345575814],[4.666585508143249,51.444399143320055],[4.669686890079292,51.42636290767665],[4.651768909691943,51.42683999488576],[4.640061625606781,51.42218863942114],[4.574727059703386,51.4328480041552],[4.535407822473319,51.42302943910656],[4.529895391768346,51.44951999925961],[4.548160426466243,51.473311418739314],[4.538185130115685,51.48239682473239],[4.476505486667188,51.478273712474305],[4.464540288619646,51.47114899784712],[4.442431946924576,51.46863052926412],[4.379327638232869,51.44678802084751],[4.392039755102601,51.44636073762198],[4.396678330995288,51.44195171356372],[4.395426170118342,51.435536354904904],[4.39893103216528,51.43529862538302],[4.392311799981299,51.43143751640933],[4.395214325246284,51.426891411127436],[4.383624682583155,51.421065307187845],[4.391610656137444,51.408169956101474],[4.431693061133592,51.374986218232024],[4.425104634104499,51.37127936521201],[4.431356679850324,51.36384185579329],[4.42187043734272,51.36524073163263],[4.384573361954876,51.35437243786845],[4.341113237259555,51.35760475284016],[4.334504949703788,51.37763940112699],[4.217576741693933,51.37388507958384],[4.226745309231276,51.35975854085745],[4.242047908902887,51.353966730841],[4.166131421116544,51.29289091318028],[4.061848534529275,51.244571562028945],[4.040551216283387,51.2413168074824],[4.036537324461976,51.24567758227623],[4.024489908901002,51.24149901513957],[4.014751669884634,51.24506128936658],[3.986205554767379,51.2341585956575],[3.979182929086396,51.225510105455164],[3.964723352207113,51.22411393258913],[3.957867710680139,51.21576813773848],[3.935979740475792,51.21189240761707],[3.929418686484745,51.220261048101875],[3.91600436731215,51.21463527633853],[3.918628922788486,51.20776523709911],[3.886298747535726,51.20018200292971],[3.877625918245842,51.20801310249679],[3.889815318588881,51.213605333984404],[3.893347410236901,51.21866180650771],[3.888654445749986,51.222955587153905],[3.85957206337676,51.2108304366005],[3.836318346720709,51.21377491362318],[3.821156114318583,51.20920592901877],[3.79133537961499,51.213955303338224],[3.789453039962795,51.24578598324873],[3.79547491190554,51.25605260888899],[3.773785656099815,51.263975759100596],[3.769266933494365,51.259862660877715],[3.752415169884902,51.270266713561476],[3.693719265544182,51.276081202921304],[3.68993418158033,51.28060931630211],[3.677911650262147,51.28052770902976],[3.658226889724085,51.290155466519444],[3.640098500137713,51.28832427883819],[3.590019916535347,51.30595227992604],[3.581117049029039,51.298320676874894],[3.58793053162927,51.29295819898928],[3.583387090735,51.292252681420635],[3.581813458225264,51.28691116631251],[3.56271053958587,51.295855671150676],[3.555824380383928,51.28987431929193],[3.543429242176163,51.291197628484596],[3.538005871371162,51.28365614265004],[3.529045611774012,51.28873696258204],[3.515417653537769,51.28715089929415],[3.527596700972093,51.24604239743159],[3.44848454734452,51.24156201543423],[3.427483566677614,51.244656939780704],[3.424602451222046,51.2542082742908],[3.417650739693264,51.25914899715477],[3.40841848935787,51.256701571085834],[3.387175552642866,51.27364021350732],[3.375803490102817,51.277079088311076],[3.381850329720763,51.28231230197771],[3.380599750390537,51.28730656045899],[3.366008380846093,51.29823247195598],[3.376843874193675,51.30244803006988],[3.358383952462536,51.314982811903825],[3.385344944593673,51.33412463463827],[3.38351791081819,51.341204918661596],[3.374074758855922,51.348507748155875],[3.374995346663738,51.35888725289222],[3.362898771195018,51.373001160228924],[3.255480314064425,51.34823320120755],[3.232045651279692,51.356071025552424],[3.227023737693529,51.350682239535395],[3.2191088151732,51.360935796633164],[3.186413385438522,51.36270402950383],[3.169766138523249,51.35234489458289],[3.172084597017933,51.34455164060112],[3.166854434534862,51.33545678359061],[3.151590646710948,51.3269818016443],[3.081344899224721,51.30647930141504],[2.957398259679265,51.25236251054934],[2.915552177156627,51.24079703538161],[2.84569511594888,51.20530806297061],[2.754218872808607,51.16798377833373],[2.62822576200012,51.128115995028075],[2.615249551300336,51.12351073186424],[2.621436520584448,51.12166023092614],[2.609542347040223,51.11629826767231],[2.5413292290868,51.09388314683265],[2.562847175005426,51.06492607454205],[2.575936994192446,51.013874508488854],[2.571048405658319,51.01050855937104],[2.574036242556518,51.003242978225906],[2.595440997776327,50.992040544286574],[2.607010757745828,50.991188665506535],[2.61088884492785,50.97360372614153],[2.619482577574048,50.96726431320651],[2.632927425068676,50.94618659564691],[2.617965829502294,50.9414427057847],[2.617820837713929,50.93472213523386],[2.590385043859732,50.91924741585422],[2.594450377099677,50.91438259987114],[2.603807294428851,50.916634842035236],[2.608052001268936,50.91009043276783],[2.603936985387091,50.90458384055165],[2.609480899074066,50.89557443483043],[2.604539468561502,50.886086629205835],[2.610217936908831,50.8811940725072],[2.606077240402765,50.873949688269434],[2.61225305908938,50.86348986088064],[2.599037259717453,50.85308564048749],[2.599119265627598,50.848900502918156],[2.616688789201365,50.84787804641848],[2.616600878542222,50.83948284578397],[2.625500360707466,50.8366810846685],[2.635069414736957,50.812910856892245],[2.658014464356132,50.81425962408179],[2.669251270276475,50.82265558637692],[2.678934538472248,50.81342979417712],[2.7130198192582,50.81534519411696],[2.724107757447662,50.810584689711284],[2.721331824223237,50.80230611799556],[2.730429286575016,50.788062081111796],[2.738301476670458,50.78053310243544],[2.762045260403219,50.771082272317436],[2.757373888091303,50.762279506482784],[2.763094481377693,50.76287322335979],[2.765971661868568,50.754645480324],[2.783040208226432,50.75152064484009],[2.781632155118939,50.74342215932722],[2.790369542189099,50.731660750702055],[2.789614249932244,50.72619394917702],[2.819243581913585,50.715512997127256],[2.84809227675414,50.723024407224514],[2.863097540734701,50.708283392251175]],[[4.296390151632188,50.809908348342596],[4.28367543173978,50.80706024376238],[4.272943222822295,50.81215879669915],[4.259935651426697,50.81111726385131],[4.256322244935387,50.81741189904211],[4.244381040966217,50.81954126339441],[4.25431008693787,50.82628686708062],[4.256363362036815,50.834934575544466],[4.282939493515289,50.837849214288596],[4.283504413132421,50.84697948804813],[4.28824746520355,50.848267455075465],[4.283380229156005,50.853910337857734],[4.289840910940886,50.855866037559835],[4.280336810668125,50.85990639977894],[4.279215041727093,50.86485276765694],[4.298899989906348,50.87992675284479],[4.2937612430847,50.88904439980051],[4.342298274424158,50.90241884613129],[4.378224114060667,50.89728199872375],[4.387761708106536,50.90994427697348],[4.403466331112794,50.9139013049867],[4.414233872480898,50.91153016331858],[4.412475410947181,50.90702220270732],[4.432789070938332,50.894728492382036],[4.427036777964418,50.8908893127534],[4.43706488057285,50.87878084513276],[4.427336443726653,50.87747401671817],[4.420867844662822,50.867712486540874],[4.42975749642485,50.86121290843635],[4.461163432409583,50.851902479956166],[4.467075889951846,50.84462607916164],[4.465741781064856,50.83553519515821],[4.476732105880374,50.820404804524884],[4.454655660897075,50.81842191917895],[4.457555817468536,50.81632380186697],[4.44717608523835,50.808297284655914],[4.482271138825826,50.79298922964832],[4.382929199979794,50.76368006388515],[4.381045484565944,50.76933265042114],[4.331210845058882,50.77550833807103],[4.321868569385042,50.783170353958624],[4.316245724666378,50.79638125287203],[4.304945472563699,50.79875097388449],[4.302052212130434,50.80422186035753],[4.306451556752587,50.81244218101666],[4.296390151632188,50.809908348342596]],[[4.869841050780903,51.4121841437349],[4.870579207271364,51.412740156499325],[4.872381592578095,51.411500278284464],[4.869748333889577,51.411158390171046],[4.869841050780903,51.4121841437349]]],[[[4.888587458755781,51.42469353942069],[4.891436118171741,51.423223821903385],[4.892307727637651,51.42410159428875],[4.890124453950934,51.42528223663435],[4.888587458755781,51.42469353942069]]],[[[4.928969049319011,51.40538594141297],[4.936394625049632,51.40534109721865],[4.935794467760678,51.409298844087566],[4.929866169780258,51.40767596085455],[4.928969049319011,51.40538594141297]]],[[[4.939970971888697,51.43611886936231],[4.939881835549628,51.439446591174764],[4.934660308153085,51.438548649824796],[4.938115296094391,51.44471752946738],[4.935545021837693,51.44634574723861],[4.928303172985176,51.43855282391087],[4.923034166642,51.44737722624507],[4.919189747226242,51.4406701941843],[4.921205913114108,51.436896552832536],[4.915013567333183,51.43535496439756],[4.935979660346315,51.42946984974902],[4.939970971888697,51.43611886936231]],[[4.932375590261857,51.434489388930274],[4.931251653895766,51.43466477322673],[4.931329004479811,51.43644111812382],[4.932684514841872,51.436467579721196],[4.932375590261857,51.434489388930274]],[[4.924746404841429,51.43914332605749],[4.922323438499697,51.4376819121767],[4.92150402274181,51.439248351336275],[4.924119527605111,51.44185491333855],[4.924746404841429,51.43914332605749]],[[4.935493672154066,51.43330288158763],[4.93541321632842,51.43205000159449],[4.93417613506132,51.431949667860536],[4.934111364738069,51.43342991419762],[4.935493672154066,51.43330288158763]],[[4.932388585528765,51.43998079420015],[4.932224013695564,51.43884120276384],[4.930920318448732,51.43877647288847],[4.930635066629443,51.43988503180137],[4.932388585528765,51.43998079420015]]],[[[4.939970971888697,51.43611886936231],[4.940998180390531,51.4346427912253],[4.942755015430256,51.435113626645006],[4.942188942797547,51.4364551018721],[4.939970971888697,51.43611886936231]]],[[[4.949599701684811,51.44492944163571],[4.945911639936346,51.445193701385655],[4.945804956036037,51.44394913957717],[4.948072763593736,51.44403884425084],[4.949599701684811,51.44492944163571]]],[[[4.925718649836808,51.44490695015705],[4.926925657508283,51.44536100471229],[4.924170387719304,51.44635072332136],[4.925718649836808,51.44490695015705]]],[[[4.933205675920021,51.44826411988874],[4.931511031726357,51.44763123224063],[4.93190557216994,51.446660389102895],[4.934072100574548,51.44740047761765],[4.933205675920021,51.44826411988874]]],[[[4.933579229517625,51.44963520744905],[4.947951423256774,51.44733418356872],[4.952757371888581,51.451634296677355],[4.949431069837424,51.4535218700816],[4.933579229517625,51.44963520744905]]],[[[5.682170854647645,50.75753442502238],[5.688155562385504,50.752290857321434],[5.722277049703095,50.74571039317338],[5.726025382826792,50.75168573481827],[5.737287864332185,50.75547100900144],[5.747003525853166,50.75224090476187],[5.744774527631745,50.749113898368705],[5.748897281294704,50.74524284031577],[5.77062046517313,50.751348971631145],[5.801630544035195,50.73657339352409],[5.800150586231998,50.732116331640235],[5.811115046338826,50.72343476708525],[5.812949760480974,50.71532533453117],[5.822677008949984,50.71368460889215],[5.861287967510765,50.71743649005258],[5.883366509539968,50.709864989398056],[5.911109407063368,50.735145260554475],[5.906769813635965,50.74219709477101],[5.891067097681607,50.75061362863293],[5.886477375020214,50.77015812763023],[5.863451891995005,50.76350881084208],[5.848918719994004,50.75340836255373],[5.845035551132131,50.76537017422069],[5.830675112985691,50.758538763390476],[5.80923202621272,50.75589377947124],[5.793218650691903,50.770197760303915],[5.784501268061909,50.767169001703245],[5.777088584404195,50.78288748828268],[5.765807315376161,50.782543708848536],[5.747085442804522,50.77048418899359],[5.739176132385277,50.7570728667456],[5.730562560538068,50.75736110662072],[5.720263696296268,50.7647151337334],[5.699425055609746,50.75541490076396],[5.682170854647645,50.75753442502238]]]]}}]}